{"type":"FeatureCollection","features":[{"type":"Feature","geometry":{"type":"Polygon","coordinates":[[[2.5905,49.0797],[2.6333,49.1084],[2.6732,49.0909],[2.7067,49.0657],[2.7536,49.0607],[2.7871,49.0753],[2.7919,49.0902],[2.8452,49.0847],[2.8561,49.07],[2.895,49.0771],[2.9015,49.0854],[2.9746,49.0748],[3.0085,49.0915],[3.0484,49.0863],[3.0719,49.1176],[3.1039,49.1078],[3.1361,49.1074],[3.1652,49.0997],[3.1536,49.0833],[3.1818,49.0609],[3.1683,49.0167],[3.2292,48.9884],[3.2518,48.9724],[3.2678,48.9383],[3.3047,48.9488],[3.3131,48.9212],[3.3303,48.9087],[3.3663,48.9228],[3.3828,48.8887],[3.3805,48.8748],[3.4046,48.8639],[3.4522,48.8563],[3.4607,48.8394],[3.4852,48.8519],[3.485,48.825],[3.4322,48.8123],[3.4429,48.7862],[3.4094,48.7838],[3.3958,48.7593],[3.4302,48.7569],[3.4444,48.7367],[3.4697,48.7379],[3.4643,48.7074],[3.4694,48.6864],[3.4406,48.6637],[3.4604,48.653],[3.5175,48.6434],[3.5191,48.6335],[3.5556,48.6203],[3.5039,48.6048],[3.4975,48.59],[3.4655,48.5705],[3.4796,48.5447],[3.4592,48.5307],[3.4234,48.5336],[3.4054,48.528],[3.4349,48.4975],[3.3884,48.4804],[3.4065,48.4525],[3.392,48.4243],[3.4221,48.4133],[3.4148,48.3903],[3.3833,48.3997],[3.3672,48.3943],[3.3652,48.3723],[3.3052,48.3729],[3.2824,48.3775],[3.2544,48.365],[3.2328,48.3703],[3.2019,48.364],[3.1399,48.3726],[3.0989,48.3578],[3.0495,48.3601],[3.0368,48.3401],[3.0417,48.3294],[3.0159,48.3079],[3.0436,48.272],[3.0052,48.2077],[2.9745,48.2056],[2.971,48.1942],[2.9347,48.1788],[2.9363,48.1634],[2.868,48.1564],[2.8209,48.1297],[2.7978,48.1407],[2.7989,48.1683],[2.7415,48.1598],[2.7552,48.1457],[2.7205,48.1369],[2.7065,48.1248],[2.6634,48.1222],[2.6397,48.1389],[2.6027,48.1315],[2.5706,48.1408],[2.5375,48.1403],[2.5215,48.1273],[2.4903,48.1266],[2.4601,48.1369],[2.4832,48.1645],[2.5063,48.1564],[2.5094,48.1825],[2.5231,48.1949],[2.5069,48.226],[2.4691,48.2553],[2.4525,48.25],[2.4238,48.2603],[2.4211,48.2987],[2.4027,48.3207],[2.3633,48.3096],[2.3277,48.3331],[2.3126,48.3308],[2.2954,48.3082],[2.238,48.3164],[2.2239,48.3364],[2.2022,48.3446],[2.1807,48.3117],[2.1557,48.3045],[2.0815,48.2936],[2.0527,48.2955],[2.0438,48.2864],[1.9941,48.2866],[1.9753,48.2872],[1.9592,48.3087],[1.98,48.3185],[1.97,48.3397],[1.9868,48.3621],[1.9735,48.3888],[1.9766,48.3994],[1.9259,48.4127],[1.9407,48.4252],[1.9221,48.4576],[1.9064,48.4401],[1.8717,48.4398],[1.8449,48.4494],[1.8321,48.4676],[1.8032,48.4726],[1.7768,48.5093],[1.7758,48.5277],[1.7872,48.5537],[1.7653,48.5694],[1.7093,48.578],[1.702,48.585],[1.7149,48.6144],[1.6662,48.6137],[1.6516,48.6381],[1.6031,48.6624],[1.6118,48.6895],[1.5795,48.7018],[1.6264,48.7481],[1.5876,48.7736],[1.5757,48.7905],[1.5912,48.8149],[1.5773,48.8444],[1.5816,48.855],[1.5462,48.8724],[1.5595,48.8821],[1.5385,48.9067],[1.5386,48.9218],[1.5073,48.9276],[1.5015,48.9411],[1.4974,48.9796],[1.4771,48.9788],[1.4771,49.0168],[1.4578,49.0263],[1.4474,49.0452],[1.4608,49.0627],[1.4849,49.0515],[1.538,49.0723],[1.5571,49.0696],[1.6017,49.0845],[1.6088,49.0779],[1.6351,49.1143],[1.6558,49.1302],[1.6644,49.1534],[1.6741,49.2102],[1.7044,49.2322],[1.7341,49.2213],[1.7421,49.1802],[1.7552,49.1745],[1.7955,49.1853],[1.8455,49.1699],[1.877,49.1714],[1.8852,49.1626],[1.9315,49.1742],[1.9607,49.1735],[1.9738,49.1838],[2.0006,49.1757],[2.0749,49.2087],[2.0969,49.1898],[2.1327,49.1914],[2.182,49.1737],[2.2187,49.1807],[2.2525,49.1529],[2.2864,49.1599],[2.3109,49.1864],[2.3463,49.1618],[2.3913,49.1493],[2.4131,49.1524],[2.4716,49.1354],[2.5033,49.1176],[2.4899,49.1064],[2.5582,49.0984],[2.5905,49.0797]]]},"properties":{"code":"11","nom":"Île-de-France"}},{"type":"Feature","geometry":{"type":"Polygon","coordinates":[[[2.8746,47.5204],[2.8885,47.5094],[2.9027,47.4788],[2.9312,47.4417],[2.9195,47.4073],[2.8735,47.3484],[2.8768,47.3218],[2.9078,47.311],[2.9379,47.2877],[2.9834,47.2598],[2.9817,47.222],[3.0093,47.1799],[3.0281,47.1291],[3.0314,47.0925],[3.0232,47.0626],[3.0627,47.0453],[3.0758,47.0191],[3.0629,46.9858],[3.0793,46.9551],[3.0503,46.9106],[3.0681,46.8777],[3.0695,46.8531],[3.0593,46.8273],[3.0321,46.7949],[2.9599,46.8039],[2.9081,46.7879],[2.9098,46.7793],[2.8276,46.7353],[2.7912,46.7335],[2.7587,46.7177],[2.7373,46.7432],[2.7145,46.7445],[2.7017,46.7278],[2.6479,46.6889],[2.6239,46.6566],[2.5978,46.6647],[2.5722,46.6594],[2.5966,46.6372],[2.578,46.6038],[2.6011,46.5902],[2.6099,46.5501],[2.5367,46.5197],[2.5286,46.5295],[2.4991,46.5213],[2.4829,46.5327],[2.4455,46.5201],[2.3683,46.5184],[2.352,46.5122],[2.3055,46.4754],[2.2858,46.4535],[2.281,46.4204],[2.2499,46.4264],[2.2138,46.4231],[2.1976,46.4283],[2.1678,46.4241],[2.1297,46.4199],[2.0889,46.4089],[2.0742,46.4198],[2.0444,46.4213],[1.9931,46.4309],[1.9781,46.4398],[1.9243,46.4319],[1.9092,46.4435],[1.8834,46.4326],[1.8195,46.43],[1.7984,46.4548],[1.7476,46.45],[1.7601,46.4276],[1.7277,46.3894],[1.7109,46.3921],[1.6836,46.4182],[1.6448,46.3868],[1.6143,46.4053],[1.5697,46.4055],[1.5462,46.3935],[1.544,46.4169],[1.5223,46.4265],[1.4629,46.3754],[1.4354,46.3638],[1.4152,46.3472],[1.409,46.3613],[1.3835,46.3748],[1.356,46.4001],[1.3223,46.3897],[1.3031,46.371],[1.2604,46.3788],[1.2192,46.3659],[1.2048,46.3877],[1.1773,46.384],[1.211,46.4294],[1.1516,46.4492],[1.153,46.473],[1.135,46.4953],[1.1491,46.5022],[1.1083,46.5315],[1.0876,46.5382],[1.0206,46.5371],[1.0148,46.5678],[0.9872,46.5656],[0.9408,46.5814],[0.9159,46.5966],[0.8943,46.6257],[0.9065,46.6477],[0.9084,46.6827],[0.928,46.6954],[0.901,46.7361],[0.8675,46.7482],[0.828,46.7768],[0.8119,46.7945],[0.8093,46.8279],[0.7521,46.8609],[0.7043,46.9033],[0.7063,46.9372],[0.6926,46.9743],[0.6362,46.9855],[0.6189,47.0075],[0.5669,47.0023],[0.5783,46.9798],[0.6012,46.9731],[0.6016,46.9591],[0.5644,46.9555],[0.5393,46.9602],[0.5027,46.9579],[0.4448,46.9411],[0.4387,46.9296],[0.3665,46.9496],[0.3248,46.9307],[0.3112,46.9378],[0.3007,46.9738],[0.3082,46.9999],[0.2987,47.0196],[0.3093,47.0441],[0.2982,47.0539],[0.2719,47.0464],[0.2455,47.0713],[0.208,47.0532],[0.1742,47.0713],[0.201,47.0913],[0.1815,47.1144],[0.1569,47.1033],[0.1347,47.1079],[0.1361,47.1216],[0.0764,47.1239],[0.0538,47.1637],[0.0666,47.1898],[0.0533,47.1972],[0.0725,47.2205],[0.0679,47.2473],[0.0786,47.2839],[0.1175,47.3323],[0.1473,47.3454],[0.1494,47.3623],[0.183,47.3803],[0.168,47.3869],[0.1676,47.4054],[0.1853,47.4247],[0.1812,47.4526],[0.2092,47.4937],[0.2201,47.502],[0.2248,47.5273],[0.2015,47.5443],[0.215,47.5706],[0.2345,47.578],[0.23,47.6084],[0.2593,47.6123],[0.278,47.5974],[0.3231,47.593],[0.3396,47.5795],[0.3785,47.5685],[0.4026,47.5785],[0.397,47.594],[0.3647,47.626],[0.3963,47.6408],[0.4239,47.6178],[0.4499,47.6193],[0.4566,47.6388],[0.4984,47.6448],[0.5168,47.6549],[0.5446,47.6566],[0.5599,47.6708],[0.5848,47.6686],[0.6148,47.6827],[0.6144,47.6942],[0.5805,47.7123],[0.6116,47.7281],[0.6207,47.7475],[0.6513,47.7553],[0.7249,47.7989],[0.7452,47.8262],[0.7746,47.8397],[0.7573,47.8912],[0.7805,47.9104],[0.8091,47.9107],[0.8171,47.9345],[0.8455,47.9413],[0.8377,47.9687],[0.8187,47.9893],[0.8324,47.9966],[0.8405,48.021],[0.7976,48.0372],[0.8012,48.0715],[0.843,48.0726],[0.8412,48.1031],[0.8526,48.1336],[0.9138,48.1351],[0.9116,48.1489],[0.862,48.1668],[0.8368,48.167],[0.7977,48.1945],[0.8302,48.2143],[0.7876,48.2613],[0.7958,48.2865],[0.7689,48.3219],[0.7854,48.3404],[0.8187,48.3493],[0.8837,48.3567],[0.909,48.3703],[0.9486,48.4025],[0.944,48.4154],[0.9584,48.4426],[0.9357,48.4756],[0.9563,48.4823],[0.954,48.5038],[0.9667,48.5241],[0.9226,48.5377],[0.9388,48.5506],[0.8913,48.5722],[0.8677,48.5735],[0.8496,48.5843],[0.8466,48.6048],[0.8178,48.6163],[0.8268,48.6306],[0.8148,48.6702],[0.8277,48.6807],[0.862,48.6871],[0.8767,48.7155],[0.9024,48.7106],[0.9552,48.7168],[0.9615,48.7257],[1.0141,48.7281],[1.0591,48.7568],[1.0957,48.7487],[1.1186,48.7546],[1.1214,48.7892],[1.1521,48.7856],[1.1595,48.7697],[1.1847,48.7726],[1.246,48.7697],[1.2702,48.7575],[1.3003,48.7675],[1.3195,48.761],[1.377,48.7918],[1.3584,48.8164],[1.3622,48.8342],[1.4094,48.8612],[1.455,48.8703],[1.4713,48.8978],[1.4483,48.9243],[1.4613,48.9376],[1.5015,48.9411],[1.5073,48.9276],[1.5386,48.9218],[1.5385,48.9067],[1.5595,48.8821],[1.5462,48.8724],[1.5816,48.855],[1.5773,48.8444],[1.5912,48.8149],[1.5757,48.7905],[1.5876,48.7736],[1.6264,48.7481],[1.5795,48.7018],[1.6118,48.6895],[1.6031,48.6624],[1.6516,48.6381],[1.6662,48.6137],[1.7149,48.6144],[1.702,48.585],[1.7093,48.578],[1.7653,48.5694],[1.7872,48.5537],[1.7758,48.5277],[1.7768,48.5093],[1.8032,48.4726],[1.8321,48.4676],[1.8449,48.4494],[1.8717,48.4398],[1.9064,48.4401],[1.9221,48.4576],[1.9407,48.4252],[1.9259,48.4127],[1.9766,48.3994],[1.9735,48.3888],[1.9868,48.3621],[1.97,48.3397],[1.98,48.3185],[1.9592,48.3087],[1.9753,48.2872],[1.9941,48.2866],[2.0438,48.2864],[2.0527,48.2955],[2.0815,48.2936],[2.1557,48.3045],[2.1807,48.3117],[2.2022,48.3446],[2.2239,48.3364],[2.238,48.3164],[2.2954,48.3082],[2.3126,48.3308],[2.3277,48.3331],[2.3633,48.3096],[2.4027,48.3207],[2.4211,48.2987],[2.4238,48.2603],[2.4525,48.25],[2.4691,48.2553],[2.5069,48.226],[2.5231,48.1949],[2.5094,48.1825],[2.5063,48.1564],[2.4832,48.1645],[2.4601,48.1369],[2.4903,48.1266],[2.5215,48.1273],[2.5375,48.1403],[2.5706,48.1408],[2.6027,48.1315],[2.6397,48.1389],[2.6634,48.1222],[2.7065,48.1248],[2.7205,48.1369],[2.7552,48.1457],[2.7415,48.1598],[2.7989,48.1683],[2.7978,48.1407],[2.8209,48.1297],[2.868,48.1564],[2.9363,48.1634],[2.9713,48.1518],[2.9909,48.1525],[3.0295,48.1332],[3.0499,48.0888],[3.0505,48.0723],[3.0883,48.0539],[3.1041,48.0135],[3.1246,48.006],[3.1285,47.971],[3.0785,47.9314],[3.0646,47.9305],[3.0072,47.8953],[3.0054,47.864],[3.0291,47.8571],[3.0297,47.8351],[3.0125,47.8344],[3.0281,47.8006],[3.0238,47.7866],[2.9882,47.786],[2.9547,47.7756],[2.9497,47.7659],[2.9145,47.7694],[2.8567,47.7609],[2.8488,47.7259],[2.859,47.7113],[2.9117,47.6915],[2.9182,47.6698],[2.9542,47.6458],[2.9363,47.6367],[2.9403,47.6035],[2.9623,47.5768],[2.9765,47.5694],[2.9587,47.5574],[2.9143,47.566],[2.8908,47.5531],[2.8575,47.5528],[2.8489,47.5375],[2.8746,47.5204]]]},"properties":{"code":"24","nom":"Centre-Val de Loire"}},{"type":"Feature","geometry":{"type":"Polygon","coordinates":[[[3.6294,46.7495],[3.5757,46.7495],[3.598,46.724],[3.5773,46.7149],[3.5504,46.7159],[3.5601,46.6894],[3.5465,46.6783],[3.524,46.686],[3.4886,46.6602],[3.4553,46.6524],[3.4473,46.6636],[3.4538,46.6841],[3.433,46.6933],[3.4341,46.7119],[3.3878,46.7148],[3.3664,46.6913],[3.3467,46.6844],[3.314,46.6888],[3.3009,46.7163],[3.2698,46.7167],[3.2155,46.6829],[3.1973,46.6799],[3.1632,46.6935],[3.1298,46.7272],[3.0839,46.7376],[3.0491,46.7581],[3.0321,46.7949],[3.0593,46.8273],[3.0695,46.8531],[3.0681,46.8777],[3.0503,46.9106],[3.0793,46.9551],[3.0629,46.9858],[3.0758,47.0191],[3.0627,47.0453],[3.0232,47.0626],[3.0314,47.0925],[3.0281,47.1291],[3.0093,47.1799],[2.9817,47.222],[2.9834,47.2598],[2.9379,47.2877],[2.9078,47.311],[2.8768,47.3218],[2.8735,47.3484],[2.9195,47.4073],[2.9312,47.4417],[2.9027,47.4788],[2.8885,47.5094],[2.8746,47.5204],[2.8489,47.5375],[2.8575,47.5528],[2.8908,47.5531],[2.9143,47.566],[2.9587,47.5574],[2.9765,47.5694],[2.9623,47.5768],[2.9403,47.6035],[2.9363,47.6367],[2.9542,47.6458],[2.9182,47.6698],[2.9117,47.6915],[2.859,47.7113],[2.8488,47.7259],[2.8567,47.7609],[2.9145,47.7694],[2.9497,47.7659],[2.9547,47.7756],[2.9882,47.786],[3.0238,47.7866],[3.0281,47.8006],[3.0125,47.8344],[3.0297,47.8351],[3.0291,47.8571],[3.0054,47.864],[3.0072,47.8953],[3.0646,47.9305],[3.0785,47.9314],[3.1285,47.971],[3.1246,48.006],[3.1041,48.0135],[3.0883,48.0539],[3.0505,48.0723],[3.0499,48.0888],[3.0295,48.1332],[2.9909,48.1525],[2.9713,48.1518],[2.9363,48.1634],[2.9347,48.1788],[2.971,48.1942],[2.9745,48.2056],[3.0052,48.2077],[3.0436,48.272],[3.0159,48.3079],[3.0417,48.3294],[3.0368,48.3401],[3.0495,48.3601],[3.0989,48.3578],[3.1399,48.3726],[3.2019,48.364],[3.2328,48.3703],[3.2544,48.365],[3.2824,48.3775],[3.3052,48.3729],[3.3652,48.3723],[3.3672,48.3943],[3.3833,48.3997],[3.4148,48.3903],[3.4275,48.36],[3.4526,48.3744],[3.4987,48.3686],[3.5325,48.3405],[3.5634,48.3214],[3.5666,48.3074],[3.588,48.3008],[3.5872,48.2802],[3.6168,48.2713],[3.6243,48.2545],[3.6001,48.237],[3.6216,48.2257],[3.6112,48.2119],[3.5752,48.1887],[3.5942,48.1789],[3.6196,48.1908],[3.6415,48.1839],[3.6679,48.1392],[3.705,48.1443],[3.7403,48.1697],[3.7548,48.1502],[3.7397,48.1328],[3.7733,48.1297],[3.805,48.1025],[3.8068,48.0839],[3.8246,48.0613],[3.8243,48.0429],[3.8706,48.0156],[3.8398,48.0039],[3.85,47.9838],[3.8783,47.9794],[3.9002,47.9979],[3.9147,47.9757],[3.9016,47.9386],[3.9481,47.9309],[3.986,47.9306],[4.0039,47.942],[4.0181,47.9285],[4.0452,47.926],[4.0613,47.9456],[4.093,47.943],[4.1118,47.927],[4.1663,47.9598],[4.2078,47.9466],[4.2067,47.9722],[4.2285,47.9692],[4.2221,47.9497],[4.2427,47.932],[4.2656,47.9241],[4.2934,47.9257],[4.309,47.9612],[4.3513,47.9566],[4.4143,47.9682],[4.449,47.9572],[4.4933,47.9688],[4.5182,47.9666],[4.56,47.9714],[4.5358,48.0012],[4.5827,48.0295],[4.6168,48.0314],[4.6732,48.0151],[4.7042,48.0202],[4.7199,48.0089],[4.7493,48.0043],[4.7891,48.0078],[4.7946,47.9832],[4.7851,47.9689],[4.811,47.9593],[4.8452,47.9613],[4.8661,47.9405],[4.8289,47.9151],[4.857,47.8959],[4.8763,47.9202],[4.9018,47.9213],[4.9282,47.8869],[4.9282,47.8711],[4.9541,47.8668],[4.9684,47.8319],[4.9939,47.8196],[4.9872,47.8033],[4.9183,47.7773],[4.9307,47.7613],[4.9496,47.765],[4.9718,47.7302],[4.9538,47.7069],[4.9598,47.697],[4.9923,47.6883],[5.03,47.7094],[5.0436,47.6765],[5.0849,47.6573],[5.1282,47.6477],[5.1783,47.681],[5.1736,47.6526],[5.2114,47.6419],[5.2392,47.6161],[5.2387,47.5973],[5.2529,47.5769],[5.2998,47.6049],[5.34,47.6091],[5.3549,47.5913],[5.3741,47.6045],[5.3732,47.6184],[5.4057,47.6469],[5.4063,47.6734],[5.446,47.6708],[5.4826,47.6846],[5.5298,47.6728],[5.5672,47.7052],[5.585,47.6998],[5.5967,47.6717],[5.6534,47.6774],[5.6901,47.6848],[5.6841,47.712],[5.6933,47.7375],[5.7094,47.7451],[5.7051,47.7691],[5.68,47.77],[5.6819,47.8064],[5.6999,47.8239],[5.7326,47.8176],[5.7461,47.8236],[5.7441,47.8487],[5.7612,47.8593],[5.8056,47.8473],[5.8513,47.906],[5.87,47.9007],[5.8909,47.9108],[5.8847,47.926],[5.9001,47.9448],[5.918,47.9474],[5.9183,47.9656],[5.9367,47.9789],[5.9595,47.9658],[5.9377,47.9509],[5.9537,47.937],[5.9708,47.9572],[5.9946,47.9578],[6.0235,47.9782],[6.0412,48.0044],[6.1314,48.0241],[6.156,48.0064],[6.1524,47.9951],[6.168,47.9524],[6.1933,47.9532],[6.2083,47.9396],[6.238,47.9328],[6.2773,47.9538],[6.3245,47.9493],[6.3662,47.9619],[6.4317,47.9438],[6.456,47.9068],[6.4763,47.8914],[6.5422,47.9026],[6.5634,47.9314],[6.6073,47.9431],[6.6411,47.9158],[6.6437,47.905],[6.7037,47.8814],[6.7378,47.8616],[6.7848,47.8496],[6.7922,47.8301],[6.8235,47.8131],[6.8462,47.8229],[6.8485,47.8019],[6.8624,47.7864],[6.924,47.7705],[6.9404,47.7716],[6.9712,47.7527],[7.0118,47.7417],[7.0374,47.7216],[7.0265,47.701],[7.0463,47.6715],[7.0189,47.6507],[7.005,47.6194],[7.0254,47.5927],[7.0647,47.6011],[7.0863,47.5926],[7.1062,47.5514],[7.1358,47.5365],[7.1303,47.503],[7.1111,47.4949],[7.0666,47.4935],[7.0244,47.5042],[6.9859,47.4915],[6.999,47.4523],[6.97,47.4469],[6.9405,47.4334],[6.9384,47.406],[6.9176,47.4055],[6.9113,47.3857],[6.8854,47.3746],[6.8794,47.3584],[6.9195,47.3554],[6.9942,47.3631],[7.0121,47.3729],[7.0497,47.3607],[7.0622,47.3442],[7.0462,47.327],[7.0161,47.3136],[6.9931,47.2955],[6.9429,47.2878],[6.9552,47.2441],[6.9407,47.2318],[6.8824,47.2016],[6.8583,47.1644],[6.8002,47.1288],[6.7638,47.1198],[6.7399,47.1081],[6.7411,47.0911],[6.7178,47.0889],[6.6916,47.0667],[6.714,47.0491],[6.6997,47.039],[6.6616,47.0282],[6.6337,46.9984],[6.5932,46.9918],[6.5666,46.9806],[6.5188,46.9709],[6.4967,46.9742],[6.4466,46.9341],[6.4327,46.9286],[6.4646,46.8902],[6.4601,46.8517],[6.4426,46.8324],[6.4348,46.8015],[6.4586,46.7885],[6.4259,46.7548],[6.3951,46.7482],[6.3918,46.7384],[6.3448,46.7119],[6.2853,46.6912],[6.228,46.6483],[6.1755,46.6141],[6.1273,46.5903],[6.1107,46.5763],[6.1381,46.5577],[6.1564,46.5455],[6.1127,46.5096],[6.0968,46.4812],[6.0739,46.4639],[6.0858,46.441],[6.064,46.4162],[6.0295,46.3868],[5.9836,46.3624],[5.9414,46.3094],[5.918,46.3092],[5.9089,46.284],[5.8946,46.2866],[5.8784,46.2692],[5.8498,46.2621],[5.7657,46.2683],[5.7252,46.2607],[5.715,46.2818],[5.7147,46.3088],[5.6846,46.3109],[5.6494,46.3395],[5.6176,46.3291],[5.5974,46.2972],[5.5664,46.2941],[5.542,46.2702],[5.5203,46.2642],[5.4731,46.2651],[5.4568,46.2745],[5.4751,46.315],[5.4669,46.3233],[5.4378,46.3151],[5.4258,46.3389],[5.402,46.339],[5.3735,46.3522],[5.3756,46.3802],[5.3414,46.4018],[5.2988,46.4127],[5.3195,46.4308],[5.3106,46.4468],[5.2558,46.4519],[5.2151,46.4684],[5.2011,46.5082],[5.1727,46.5134],[5.1372,46.5093],[5.1074,46.4919],[5.0564,46.4839],[5.0278,46.4936],[5.0043,46.5104],[4.9356,46.5142],[4.9156,46.4889],[4.9158,46.4654],[4.8918,46.4399],[4.8882,46.403],[4.8515,46.3563],[4.8528,46.3282],[4.8318,46.2969],[4.826,46.2748],[4.811,46.2599],[4.8078,46.237],[4.7946,46.2183],[4.7802,46.1767],[4.7575,46.1723],[4.7305,46.1784],[4.7209,46.1939],[4.7353,46.2109],[4.7206,46.2224],[4.7358,46.2342],[4.6796,46.2587],[4.7075,46.2847],[4.6888,46.3013],[4.6547,46.3035],[4.617,46.2806],[4.6186,46.2648],[4.5865,46.2687],[4.5578,46.2946],[4.5373,46.2699],[4.504,46.2671],[4.4885,46.288],[4.4584,46.297],[4.4058,46.2961],[4.392,46.263],[4.3881,46.2198],[4.3622,46.1956],[4.3157,46.172],[4.2923,46.1725],[4.2818,46.1566],[4.2571,46.1573],[4.2574,46.1847],[4.2247,46.178],[4.2079,46.1948],[4.1845,46.188],[4.1884,46.1751],[4.1334,46.1773],[4.1041,46.1984],[4.052,46.1817],[4.0305,46.1698],[3.9818,46.1763],[3.9725,46.2027],[3.9136,46.2069],[3.8901,46.2145],[3.9094,46.2577],[3.8995,46.2759],[3.9136,46.2967],[3.9477,46.3034],[3.9502,46.3206],[3.9866,46.3192],[3.9916,46.3696],[3.9772,46.3992],[3.9961,46.4274],[3.9881,46.4355],[3.998,46.4655],[3.9579,46.4898],[3.919,46.4961],[3.8905,46.4813],[3.8618,46.4921],[3.8646,46.5097],[3.8398,46.5176],[3.834,46.5311],[3.8018,46.5199],[3.7675,46.539],[3.7418,46.5395],[3.7315,46.5496],[3.7431,46.5655],[3.7324,46.6049],[3.7139,46.614],[3.7121,46.6336],[3.697,46.6606],[3.669,46.6735],[3.6514,46.7028],[3.6379,46.7072],[3.6294,46.7495]]]},"properties":{"code":"27","nom":"Bourgogne-Franche-Comté"}},{"type":"Feature","geometry":{"type":"Polygon","coordinates":[[[-1.1196,49.3556],[-1.0782,49.3885],[-1.0302,49.3896],[-0.9887,49.3974],[-0.9394,49.395],[-0.8754,49.3696],[-0.8252,49.3575],[-0.7222,49.347],[-0.6479,49.346],[-0.5987,49.3398],[-0.5532,49.3461],[-0.5153,49.345],[-0.452,49.3355],[-0.4148,49.3356],[-0.361,49.3229],[-0.3026,49.2984],[-0.2257,49.2818],[-0.1697,49.2862],[-0.0956,49.2982],[-0.0005,49.3256],[0.0741,49.3652],[0.1104,49.3943],[0.1298,49.403],[0.1758,49.4124],[0.2199,49.4268],[0.2972,49.4299],[0.339,49.4409],[0.3393,49.4499],[0.2731,49.4534],[0.2568,49.4463],[0.2177,49.453],[0.1925,49.4515],[0.1212,49.4632],[0.0903,49.4824],[0.0869,49.5014],[0.0696,49.5064],[0.0749,49.5363],[0.1067,49.5835],[0.1359,49.6186],[0.1545,49.6486],[0.1642,49.6865],[0.1916,49.7063],[0.2507,49.7231],[0.2833,49.7366],[0.3204,49.7415],[0.3549,49.755],[0.3653,49.7658],[0.4334,49.7881],[0.5228,49.8245],[0.5729,49.8497],[0.642,49.8642],[0.7061,49.8723],[0.7178,49.8698],[0.791,49.8758],[0.8326,49.8896],[0.8747,49.8947],[0.9298,49.9067],[0.9632,49.9199],[1.02,49.9161],[1.1061,49.9367],[1.2059,49.9735],[1.2465,49.9953],[1.3324,50.0471],[1.3816,50.0658],[1.4093,50.0571],[1.4236,50.0709],[1.4591,50.0625],[1.4522,50.0402],[1.4933,50.0177],[1.5166,50.0116],[1.5269,49.9966],[1.5739,49.9739],[1.594,49.9491],[1.6785,49.9181],[1.6933,49.8956],[1.7102,49.8893],[1.7374,49.8082],[1.7579,49.7808],[1.7838,49.7583],[1.7416,49.7516],[1.7455,49.7386],[1.7197,49.7305],[1.7155,49.7086],[1.6896,49.6948],[1.7045,49.6809],[1.734,49.6992],[1.7522,49.681],[1.7252,49.6726],[1.7088,49.6464],[1.7216,49.622],[1.7058,49.6062],[1.7148,49.5764],[1.7298,49.5613],[1.7272,49.5416],[1.7479,49.5377],[1.7192,49.5082],[1.7508,49.4953],[1.7719,49.5128],[1.7902,49.5035],[1.7741,49.4863],[1.7759,49.4713],[1.7474,49.4594],[1.723,49.4339],[1.7139,49.4092],[1.7203,49.3948],[1.7593,49.3682],[1.7741,49.3347],[1.7679,49.3198],[1.7758,49.2995],[1.8027,49.272],[1.7895,49.2479],[1.7644,49.2631],[1.7345,49.269],[1.7105,49.2645],[1.7044,49.2322],[1.6741,49.2102],[1.6644,49.1534],[1.6558,49.1302],[1.6351,49.1143],[1.6088,49.0779],[1.6017,49.0845],[1.5571,49.0696],[1.538,49.0723],[1.4849,49.0515],[1.4608,49.0627],[1.4474,49.0452],[1.4578,49.0263],[1.4771,49.0168],[1.4771,48.9788],[1.4974,48.9796],[1.5015,48.9411],[1.4613,48.9376],[1.4483,48.9243],[1.4713,48.8978],[1.455,48.8703],[1.4094,48.8612],[1.3622,48.8342],[1.3584,48.8164],[1.377,48.7918],[1.3195,48.761],[1.3003,48.7675],[1.2702,48.7575],[1.246,48.7697],[1.1847,48.7726],[1.1595,48.7697],[1.1521,48.7856],[1.1214,48.7892],[1.1186,48.7546],[1.0957,48.7487],[1.0591,48.7568],[1.0141,48.7281],[0.9615,48.7257],[0.9552,48.7168],[0.9024,48.7106],[0.8767,48.7155],[0.862,48.6871],[0.8277,48.6807],[0.8148,48.6702],[0.8268,48.6306],[0.8178,48.6163],[0.8466,48.6048],[0.8496,48.5843],[0.8677,48.5735],[0.8913,48.5722],[0.9388,48.5506],[0.9226,48.5377],[0.9667,48.5241],[0.954,48.5038],[0.9563,48.4823],[0.9357,48.4756],[0.9584,48.4426],[0.944,48.4154],[0.9486,48.4025],[0.909,48.3703],[0.8837,48.3567],[0.8187,48.3493],[0.7854,48.3404],[0.7689,48.3219],[0.7958,48.2865],[0.7876,48.2613],[0.8302,48.2143],[0.7977,48.1945],[0.7641,48.1816],[0.7236,48.1981],[0.6955,48.2363],[0.6755,48.2547],[0.6532,48.2637],[0.6236,48.2453],[0.5792,48.2444],[0.536,48.2498],[0.5303,48.2655],[0.4946,48.2868],[0.4876,48.3078],[0.4313,48.3066],[0.4062,48.3146],[0.3826,48.3338],[0.3831,48.3551],[0.3717,48.4105],[0.3816,48.4252],[0.3558,48.4582],[0.3002,48.4806],[0.218,48.4738],[0.1898,48.4619],[0.1722,48.4648],[0.1513,48.4372],[0.1162,48.4356],[0.0992,48.4104],[0.0687,48.4067],[0.0625,48.383],[0.021,48.3802],[0.0034,48.396],[-0.0446,48.3798],[-0.0545,48.382],[-0.0574,48.4285],[-0.0519,48.4533],[-0.1064,48.4475],[-0.1436,48.4547],[-0.1663,48.5156],[-0.1446,48.5278],[-0.1694,48.537],[-0.2069,48.5629],[-0.2344,48.5623],[-0.2618,48.5479],[-0.2415,48.5371],[-0.263,48.5236],[-0.2715,48.5075],[-0.3202,48.5229],[-0.3382,48.5005],[-0.3676,48.4929],[-0.4438,48.5137],[-0.4782,48.5016],[-0.5051,48.5058],[-0.5304,48.4952],[-0.5503,48.4742],[-0.5986,48.471],[-0.6511,48.4439],[-0.6662,48.4859],[-0.7021,48.4672],[-0.7303,48.4727],[-0.7359,48.4611],[-0.7151,48.4489],[-0.7573,48.4366],[-0.7796,48.446],[-0.7779,48.4654],[-0.7976,48.4653],[-0.8604,48.5015],[-0.8958,48.4948],[-0.9224,48.5124],[-0.9564,48.5166],[-0.9723,48.4946],[-1.004,48.4892],[-1.0606,48.5153],[-1.0702,48.5085],[-1.1305,48.5217],[-1.1471,48.5175],[-1.171,48.5311],[-1.1884,48.5287],[-1.2066,48.5422],[-1.2722,48.5339],[-1.2792,48.5092],[-1.3287,48.4962],[-1.3447,48.4731],[-1.3826,48.4568],[-1.4291,48.4626],[-1.4493,48.4861],[-1.4899,48.4894],[-1.4956,48.5089],[-1.5196,48.54],[-1.5333,48.548],[-1.5189,48.5666],[-1.543,48.5804],[-1.5396,48.5999],[-1.5711,48.6264],[-1.5435,48.6312],[-1.5156,48.6182],[-1.4772,48.6187],[-1.4436,48.6275],[-1.3932,48.6505],[-1.4858,48.6864],[-1.5082,48.6912],[-1.5319,48.731],[-1.5602,48.7355],[-1.5744,48.7518],[-1.5689,48.8027],[-1.5744,48.8217],[-1.6049,48.8379],[-1.5872,48.8465],[-1.5764,48.8662],[-1.5697,48.899],[-1.5516,48.9083],[-1.5434,48.931],[-1.5621,48.941],[-1.5607,49.0015],[-1.5938,49.0225],[-1.6094,49.0793],[-1.6069,49.11],[-1.5947,49.1319],[-1.6073,49.1966],[-1.5893,49.2334],[-1.617,49.2316],[-1.6317,49.2142],[-1.6542,49.2414],[-1.665,49.2656],[-1.7112,49.3251],[-1.7243,49.3271],[-1.7647,49.3636],[-1.807,49.3719],[-1.8237,49.4015],[-1.8268,49.4529],[-1.8446,49.471],[-1.8526,49.5104],[-1.8819,49.5193],[-1.8857,49.5404],[-1.8579,49.5515],[-1.841,49.5717],[-1.8451,49.6191],[-1.8603,49.6502],[-1.8957,49.6649],[-1.9462,49.6743],[-1.9364,49.6938],[-1.9473,49.7049],[-1.9422,49.7256],[-1.9165,49.7249],[-1.8829,49.7057],[-1.8587,49.7156],[-1.8395,49.7116],[-1.8229,49.6903],[-1.7746,49.6809],[-1.7178,49.6798],[-1.6868,49.6731],[-1.6724,49.6577],[-1.6329,49.6606],[-1.6247,49.6465],[-1.5202,49.6574],[-1.4858,49.6693],[-1.4711,49.6967],[-1.4557,49.6913],[-1.4212,49.7037],[-1.3686,49.7066],[-1.2998,49.6935],[-1.2679,49.6953],[-1.271,49.6797],[-1.2392,49.6524],[-1.2291,49.6087],[-1.2543,49.6127],[-1.2663,49.5929],[-1.2962,49.5832],[-1.3092,49.5526],[-1.3064,49.5389],[-1.2527,49.4806],[-1.1926,49.4322],[-1.168,49.408],[-1.1617,49.3917],[-1.1786,49.3785],[-1.164,49.3667],[-1.1196,49.3556]]]},"properties":{"code":"28","nom":"Normandie"}},{"type":"Feature","geometry":{"type":"Polygon","coordinates":[[[4.048,49.4056],[4.0399,49.3974],[4.0355,49.3599],[4.0127,49.3583],[3.9949,49.3779],[3.9613,49.3773],[3.9252,49.4076],[3.8982,49.3932],[3.8649,49.4053],[3.8377,49.3957],[3.8564,49.3812],[3.8481,49.3639],[3.8225,49.357],[3.7775,49.3558],[3.7422,49.3365],[3.6989,49.332],[3.6439,49.3127],[3.6573,49.291],[3.6553,49.2629],[3.6708,49.2396],[3.6625,49.209],[3.6971,49.2055],[3.7044,49.1814],[3.7254,49.1735],[3.7511,49.1777],[3.7488,49.1571],[3.7016,49.1431],[3.6838,49.1545],[3.6534,49.1487],[3.6222,49.1511],[3.6104,49.1355],[3.6118,49.1181],[3.6391,49.0813],[3.5877,49.0594],[3.5876,49.0338],[3.6477,49.0414],[3.664,49.0373],[3.6781,49.0169],[3.6652,49.0056],[3.6388,49.0023],[3.6207,48.9659],[3.5916,48.9604],[3.602,48.9451],[3.5744,48.939],[3.5739,48.9215],[3.5286,48.9121],[3.5083,48.8904],[3.4852,48.8519],[3.4607,48.8394],[3.4522,48.8563],[3.4046,48.8639],[3.3805,48.8748],[3.3828,48.8887],[3.3663,48.9228],[3.3303,48.9087],[3.3131,48.9212],[3.3047,48.9488],[3.2678,48.9383],[3.2518,48.9724],[3.2292,48.9884],[3.1683,49.0167],[3.1818,49.0609],[3.1536,49.0833],[3.1652,49.0997],[3.1361,49.1074],[3.1039,49.1078],[3.0719,49.1176],[3.0484,49.0863],[3.0085,49.0915],[2.9746,49.0748],[2.9015,49.0854],[2.895,49.0771],[2.8561,49.07],[2.8452,49.0847],[2.7919,49.0902],[2.7871,49.0753],[2.7536,49.0607],[2.7067,49.0657],[2.6732,49.0909],[2.6333,49.1084],[2.5905,49.0797],[2.5582,49.0984],[2.4899,49.1064],[2.5033,49.1176],[2.4716,49.1354],[2.4131,49.1524],[2.3913,49.1493],[2.3463,49.1618],[2.3109,49.1864],[2.2864,49.1599],[2.2525,49.1529],[2.2187,49.1807],[2.182,49.1737],[2.1327,49.1914],[2.0969,49.1898],[2.0749,49.2087],[2.0006,49.1757],[1.9738,49.1838],[1.9607,49.1735],[1.9315,49.1742],[1.8852,49.1626],[1.877,49.1714],[1.8455,49.1699],[1.7955,49.1853],[1.7552,49.1745],[1.7421,49.1802],[1.7341,49.2213],[1.7044,49.2322],[1.7105,49.2645],[1.7345,49.269],[1.7644,49.2631],[1.7895,49.2479],[1.8027,49.272],[1.7758,49.2995],[1.7679,49.3198],[1.7741,49.3347],[1.7593,49.3682],[1.7203,49.3948],[1.7139,49.4092],[1.723,49.4339],[1.7474,49.4594],[1.7759,49.4713],[1.7741,49.4863],[1.7902,49.5035],[1.7719,49.5128],[1.7508,49.4953],[1.7192,49.5082],[1.7479,49.5377],[1.7272,49.5416],[1.7298,49.5613],[1.7148,49.5764],[1.7058,49.6062],[1.7216,49.622],[1.7088,49.6464],[1.7252,49.6726],[1.7522,49.681],[1.734,49.6992],[1.7045,49.6809],[1.6896,49.6948],[1.7155,49.7086],[1.7197,49.7305],[1.7455,49.7386],[1.7416,49.7516],[1.7838,49.7583],[1.7579,49.7808],[1.7374,49.8082],[1.7102,49.8893],[1.6933,49.8956],[1.6785,49.9181],[1.594,49.9491],[1.5739,49.9739],[1.5269,49.9966],[1.5166,50.0116],[1.4933,50.0177],[1.4522,50.0402],[1.4591,50.0625],[1.4236,50.0709],[1.4093,50.0571],[1.3816,50.0658],[1.4539,50.1103],[1.4828,50.1724],[1.5124,50.2017],[1.5484,50.2152],[1.5962,50.1855],[1.6274,50.19],[1.6733,50.1747],[1.6838,50.183],[1.6627,50.2136],[1.6225,50.2151],[1.5936,50.2443],[1.5922,50.2565],[1.5493,50.2604],[1.5379,50.2827],[1.5509,50.3503],[1.5713,50.3585],[1.613,50.3603],[1.6415,50.3522],[1.6252,50.3718],[1.5795,50.3792],[1.5557,50.3977],[1.57,50.4445],[1.5774,50.5165],[1.5854,50.5374],[1.6193,50.5353],[1.5813,50.5628],[1.5766,50.5722],[1.5755,50.6438],[1.5607,50.6997],[1.5941,50.7349],[1.6044,50.7628],[1.6055,50.793],[1.5779,50.8533],[1.5835,50.8718],[1.6421,50.8789],[1.6673,50.8923],[1.6925,50.9154],[1.7289,50.9379],[1.7807,50.9549],[1.8324,50.9631],[1.8712,50.9749],[1.8897,50.9723],[1.9158,50.9841],[2.0454,50.9983],[2.0677,51.0065],[2.1101,51.0052],[2.1387,51.0205],[2.1902,51.018],[2.1918,51.0347],[2.2186,51.0322],[2.259,51.0435],[2.3422,51.0573],[2.3952,51.0503],[2.4248,51.0556],[2.5463,51.0884],[2.5629,51.0646],[2.576,51.0138],[2.574,51.0035],[2.608,50.9872],[2.6327,50.946],[2.59,50.9191],[2.6075,50.9124],[2.6103,50.8621],[2.635,50.8128],[2.7182,50.8132],[2.7375,50.7827],[2.7819,50.7511],[2.7867,50.7338],[2.8133,50.7169],[2.8484,50.7229],[2.8702,50.7029],[2.8984,50.6942],[2.9223,50.7028],[2.9374,50.7421],[2.9697,50.7496],[3.022,50.7721],[3.0614,50.7805],[3.0887,50.7734],[3.1109,50.7941],[3.152,50.7823],[3.1991,50.7347],[3.2118,50.7133],[3.2447,50.713],[3.2584,50.7006],[3.2624,50.6785],[3.2411,50.6578],[3.2552,50.6226],[3.2703,50.6108],[3.2817,50.5773],[3.276,50.5585],[3.2865,50.5276],[3.3627,50.5031],[3.3762,50.4911],[3.4322,50.5071],[3.474,50.5336],[3.5194,50.5229],[3.4963,50.4987],[3.5223,50.495],[3.5683,50.501],[3.5853,50.4905],[3.6071,50.4973],[3.6436,50.4632],[3.6642,50.4532],[3.6737,50.3897],[3.6583,50.3713],[3.6737,50.3349],[3.7104,50.3032],[3.7316,50.3124],[3.7362,50.3433],[3.7474,50.3509],[3.8528,50.3516],[3.8898,50.33],[3.909,50.3285],[3.9679,50.3504],[3.9939,50.3486],[4.0274,50.3575],[4.0376,50.3429],[4.122,50.2983],[4.1244,50.2736],[4.2075,50.273],[4.2219,50.257],[4.1895,50.2369],[4.1601,50.2025],[4.1494,50.1748],[4.1541,50.1613],[4.1269,50.135],[4.197,50.1353],[4.1975,50.1092],[4.2275,50.0797],[4.2178,50.0608],[4.1739,50.0456],[4.1622,50.049],[4.1364,50.0205],[4.1577,49.9882],[4.1409,49.9788],[4.1724,49.9771],[4.1971,49.9677],[4.1959,49.9557],[4.2332,49.9578],[4.2172,49.9148],[4.2557,49.9032],[4.2488,49.8568],[4.2236,49.8341],[4.2143,49.8061],[4.2267,49.793],[4.2076,49.7811],[4.2382,49.7674],[4.2469,49.7548],[4.228,49.7436],[4.2247,49.7272],[4.1912,49.7163],[4.1846,49.6988],[4.1442,49.6885],[4.127,49.6779],[4.1245,49.6496],[4.0957,49.6291],[4.0643,49.637],[4.042,49.6298],[4.0314,49.6143],[4.0766,49.5711],[4.0583,49.5525],[4.076,49.5398],[4.0773,49.5252],[4.0407,49.5085],[4.0424,49.4687],[4.0576,49.4512],[4.0377,49.4383],[4.048,49.4056]]]},"properties":{"code":"32","nom":"Hauts-de-France"}},{"type":"Feature","geometry":{"type":"Polygon","coordinates":[[[4.2332,49.9578],[4.3081,49.9695],[4.3497,49.9522],[4.3789,49.9531],[4.4469,49.9375],[4.4816,49.9479],[4.5104,49.9467],[4.5405,49.968],[4.5737,49.9803],[4.6747,49.9966],[4.6993,50.0538],[4.6827,50.0688],[4.7021,50.0955],[4.7513,50.1117],[4.7622,50.1364],[4.8243,50.1607],[4.832,50.154],[4.8796,50.152],[4.8949,50.1346],[4.8708,50.1243],[4.8685,50.0976],[4.8512,50.1014],[4.8293,50.048],[4.8404,50.0376],[4.817,50.0156],[4.8189,49.9951],[4.7901,49.97],[4.7909,49.9584],[4.8502,49.9465],[4.8581,49.9329],[4.8892,49.9097],[4.8518,49.861],[4.8676,49.8401],[4.8671,49.8142],[4.8554,49.7924],[4.9309,49.7869],[4.9561,49.8012],[4.9988,49.7993],[5.0089,49.7819],[5.0632,49.7619],[5.0902,49.7651],[5.1151,49.7414],[5.1257,49.7145],[5.1659,49.7071],[5.1662,49.6929],[5.2088,49.6946],[5.2436,49.6857],[5.2673,49.6965],[5.332,49.6548],[5.3085,49.6359],[5.3117,49.6135],[5.343,49.6267],[5.3935,49.6171],[5.431,49.5928],[5.442,49.5508],[5.4651,49.5389],[5.4476,49.5174],[5.4709,49.4972],[5.5412,49.5153],[5.5561,49.5292],[5.5935,49.5219],[5.6159,49.5271],[5.6368,49.545],[5.6632,49.5527],[5.7013,49.5395],[5.7325,49.5445],[5.7744,49.563],[5.7939,49.5512],[5.837,49.5425],[5.8362,49.5199],[5.8691,49.4988],[5.8934,49.4969],[5.9399,49.501],[5.9718,49.4913],[5.9825,49.4511],[6.0277,49.4555],[6.0556,49.4654],[6.0767,49.4637],[6.1235,49.4734],[6.1552,49.5038],[6.2564,49.51],[6.2791,49.5034],[6.2966,49.4801],[6.3125,49.4803],[6.3644,49.4595],[6.4076,49.4675],[6.4191,49.4749],[6.4701,49.4628],[6.5544,49.4184],[6.5405,49.4011],[6.5633,49.3883],[6.5871,49.3849],[6.5685,49.3449],[6.5956,49.3303],[6.5889,49.3221],[6.6176,49.3022],[6.6386,49.2955],[6.6603,49.261],[6.6846,49.2423],[6.6948,49.2159],[6.7197,49.2214],[6.7315,49.2061],[6.7114,49.1885],[6.7385,49.1637],[6.7846,49.1681],[6.8345,49.1515],[6.8609,49.1787],[6.8515,49.2005],[6.8354,49.2113],[6.8574,49.2223],[6.8852,49.211],[6.9354,49.2222],[6.9593,49.203],[6.9746,49.2098],[6.9988,49.1943],[7.0343,49.1897],[7.0276,49.1701],[7.0461,49.1386],[7.0543,49.1126],[7.1028,49.1405],[7.1567,49.1213],[7.1839,49.1307],[7.2066,49.1235],[7.2453,49.1298],[7.2826,49.1169],[7.2987,49.1175],[7.3298,49.1449],[7.3628,49.1452],[7.3661,49.1725],[7.4451,49.1843],[7.4552,49.1663],[7.494,49.1696],[7.4922,49.1419],[7.5154,49.1212],[7.529,49.0972],[7.569,49.0798],[7.6,49.0833],[7.6311,49.0702],[7.6353,49.0542],[7.6745,49.045],[7.7073,49.0541],[7.7322,49.0444],[7.7694,49.0477],[7.7946,49.0658],[7.8688,49.0342],[7.8916,49.0476],[7.9167,49.041],[7.9346,49.0578],[7.963,49.0429],[7.9801,49.0261],[7.9967,49.0284],[8.0492,49.0142],[8.0914,48.9893],[8.1398,48.9784],[8.2227,48.976],[8.2328,48.967],[8.1958,48.9562],[8.1391,48.8929],[8.1246,48.8707],[8.0963,48.8104],[8.0589,48.7888],[8.0291,48.7865],[8.0228,48.7684],[8.0049,48.7588],[7.9697,48.7554],[7.9631,48.7214],[7.8909,48.6631],[7.8398,48.6414],[7.8287,48.6177],[7.8042,48.5923],[7.8002,48.5787],[7.807,48.5211],[7.7947,48.5021],[7.7682,48.4897],[7.7649,48.4567],[7.736,48.4042],[7.732,48.3754],[7.745,48.3357],[7.7332,48.3178],[7.7032,48.3088],[7.6678,48.2239],[7.646,48.2089],[7.6284,48.1823],[7.6012,48.1584],[7.5971,48.1331],[7.5773,48.1204],[7.58,48.106],[7.5692,48.0814],[7.5716,48.0304],[7.6054,48.0038],[7.6221,47.9723],[7.5833,47.9311],[7.5835,47.9016],[7.5567,47.8799],[7.5635,47.8521],[7.5313,47.7868],[7.5322,47.7681],[7.5481,47.7396],[7.5435,47.722],[7.5138,47.7028],[7.5223,47.6623],[7.5665,47.6329],[7.5922,47.5954],[7.5847,47.5773],[7.5061,47.5443],[7.5252,47.5199],[7.5073,47.5152],[7.5068,47.4956],[7.4869,47.4817],[7.4346,47.4979],[7.4227,47.4844],[7.4501,47.4753],[7.4203,47.4454],[7.3809,47.4319],[7.3376,47.4409],[7.2815,47.4342],[7.2463,47.4222],[7.2328,47.4388],[7.2067,47.4348],[7.1708,47.4444],[7.1866,47.4912],[7.1589,47.4908],[7.1303,47.503],[7.1358,47.5365],[7.1062,47.5514],[7.0863,47.5926],[7.0647,47.6011],[7.0254,47.5927],[7.005,47.6194],[7.0189,47.6507],[7.0463,47.6715],[7.0265,47.701],[7.0374,47.7216],[7.0118,47.7417],[6.9712,47.7527],[6.9404,47.7716],[6.924,47.7705],[6.8624,47.7864],[6.8485,47.8019],[6.8462,47.8229],[6.8235,47.8131],[6.7922,47.8301],[6.7848,47.8496],[6.7378,47.8616],[6.7037,47.8814],[6.6437,47.905],[6.6411,47.9158],[6.6073,47.9431],[6.5634,47.9314],[6.5422,47.9026],[6.4763,47.8914],[6.456,47.9068],[6.4317,47.9438],[6.3662,47.9619],[6.3245,47.9493],[6.2773,47.9538],[6.238,47.9328],[6.2083,47.9396],[6.1933,47.9532],[6.168,47.9524],[6.1524,47.9951],[6.156,48.0064],[6.1314,48.0241],[6.0412,48.0044],[6.0235,47.9782],[5.9946,47.9578],[5.9708,47.9572],[5.9537,47.937],[5.9377,47.9509],[5.9595,47.9658],[5.9367,47.9789],[5.9183,47.9656],[5.918,47.9474],[5.9001,47.9448],[5.8847,47.926],[5.8909,47.9108],[5.87,47.9007],[5.8513,47.906],[5.8056,47.8473],[5.7612,47.8593],[5.7441,47.8487],[5.7461,47.8236],[5.7326,47.8176],[5.6999,47.8239],[5.6819,47.8064],[5.68,47.77],[5.7051,47.7691],[5.7094,47.7451],[5.6933,47.7375],[5.6841,47.712],[5.6901,47.6848],[5.6534,47.6774],[5.5967,47.6717],[5.585,47.6998],[5.5672,47.7052],[5.5298,47.6728],[5.4826,47.6846],[5.446,47.6708],[5.4063,47.6734],[5.4057,47.6469],[5.3732,47.6184],[5.3741,47.6045],[5.3549,47.5913],[5.34,47.6091],[5.2998,47.6049],[5.2529,47.5769],[5.2387,47.5973],[5.2392,47.6161],[5.2114,47.6419],[5.1736,47.6526],[5.1783,47.681],[5.1282,47.6477],[5.0849,47.6573],[5.0436,47.6765],[5.03,47.7094],[4.9923,47.6883],[4.9598,47.697],[4.9538,47.7069],[4.9718,47.7302],[4.9496,47.765],[4.9307,47.7613],[4.9183,47.7773],[4.9872,47.8033],[4.9939,47.8196],[4.9684,47.8319],[4.9541,47.8668],[4.9282,47.8711],[4.9282,47.8869],[4.9018,47.9213],[4.8763,47.9202],[4.857,47.8959],[4.8289,47.9151],[4.8661,47.9405],[4.8452,47.9613],[4.811,47.9593],[4.7851,47.9689],[4.7946,47.9832],[4.7891,48.0078],[4.7493,48.0043],[4.7199,48.0089],[4.7042,48.0202],[4.6732,48.0151],[4.6168,48.0314],[4.5827,48.0295],[4.5358,48.0012],[4.56,47.9714],[4.5182,47.9666],[4.4933,47.9688],[4.449,47.9572],[4.4143,47.9682],[4.3513,47.9566],[4.309,47.9612],[4.2934,47.9257],[4.2656,47.9241],[4.2427,47.932],[4.2221,47.9497],[4.2285,47.9692],[4.2067,47.9722],[4.2078,47.9466],[4.1663,47.9598],[4.1118,47.927],[4.093,47.943],[4.0613,47.9456],[4.0452,47.926],[4.0181,47.9285],[4.0039,47.942],[3.986,47.9306],[3.9481,47.9309],[3.9016,47.9386],[3.9147,47.9757],[3.9002,47.9979],[3.8783,47.9794],[3.85,47.9838],[3.8398,48.0039],[3.8706,48.0156],[3.8243,48.0429],[3.8246,48.0613],[3.8068,48.0839],[3.805,48.1025],[3.7733,48.1297],[3.7397,48.1328],[3.7548,48.1502],[3.7403,48.1697],[3.705,48.1443],[3.6679,48.1392],[3.6415,48.1839],[3.6196,48.1908],[3.5942,48.1789],[3.5752,48.1887],[3.6112,48.2119],[3.6216,48.2257],[3.6001,48.237],[3.6243,48.2545],[3.6168,48.2713],[3.5872,48.2802],[3.588,48.3008],[3.5666,48.3074],[3.5634,48.3214],[3.5325,48.3405],[3.4987,48.3686],[3.4526,48.3744],[3.4275,48.36],[3.4148,48.3903],[3.4221,48.4133],[3.392,48.4243],[3.4065,48.4525],[3.3884,48.4804],[3.4349,48.4975],[3.4054,48.528],[3.4234,48.5336],[3.4592,48.5307],[3.4796,48.5447],[3.4655,48.5705],[3.4975,48.59],[3.5039,48.6048],[3.5556,48.6203],[3.5191,48.6335],[3.5175,48.6434],[3.4604,48.653],[3.4406,48.6637],[3.4694,48.6864],[3.4643,48.7074],[3.4697,48.7379],[3.4444,48.7367],[3.4302,48.7569],[3.3958,48.7593],[3.4094,48.7838],[3.4429,48.7862],[3.4322,48.8123],[3.485,48.825],[3.4852,48.8519],[3.5083,48.8904],[3.5286,48.9121],[3.5739,48.9215],[3.5744,48.939],[3.602,48.9451],[3.5916,48.9604],[3.6207,48.9659],[3.6388,49.0023],[3.6652,49.0056],[3.6781,49.0169],[3.664,49.0373],[3.6477,49.0414],[3.5876,49.0338],[3.5877,49.0594],[3.6391,49.0813],[3.6118,49.1181],[3.6104,49.1355],[3.6222,49.1511],[3.6534,49.1487],[3.6838,49.1545],[3.7016,49.1431],[3.7488,49.1571],[3.7511,49.1777],[3.7254,49.1735],[3.7044,49.1814],[3.6971,49.2055],[3.6625,49.209],[3.6708,49.2396],[3.6553,49.2629],[3.6573,49.291],[3.6439,49.3127],[3.6989,49.332],[3.7422,49.3365],[3.7775,49.3558],[3.8225,49.357],[3.8481,49.3639],[3.8564,49.3812],[3.8377,49.3957],[3.8649,49.4053],[3.8982,49.3932],[3.9252,49.4076],[3.9613,49.3773],[3.9949,49.3779],[4.0127,49.3583],[4.0355,49.3599],[4.0399,49.3974],[4.048,49.4056],[4.0377,49.4383],[4.0576,49.4512],[4.0424,49.4687],[4.0407,49.5085],[4.0773,49.5252],[4.076,49.5398],[4.0583,49.5525],[4.0766,49.5711],[4.0314,49.6143],[4.042,49.6298],[4.0643,49.637],[4.0957,49.6291],[4.1245,49.6496],[4.127,49.6779],[4.1442,49.6885],[4.1846,49.6988],[4.1912,49.7163],[4.2247,49.7272],[4.228,49.7436],[4.2469,49.7548],[4.2382,49.7674],[4.2076,49.7811],[4.2267,49.793],[4.2143,49.8061],[4.2236,49.8341],[4.2488,49.8568],[4.2557,49.9032],[4.2172,49.9148],[4.2332,49.9578]]]},"properties":{"code":"44","nom":"Grand Est"}},{"type":"Feature","geometry":{"type":"MultiPolygon","coordinates":[[[[-2.4585,47.4481],[-2.4534,47.4621],[-2.423,47.4771],[-2.3999,47.456],[-2.371,47.4634],[-2.3549,47.4549],[-2.3129,47.4645],[-2.3131,47.4859],[-2.2991,47.5005],[-2.2614,47.5136],[-2.2443,47.4936],[-2.1908,47.5121],[-2.1833,47.4917],[-2.1542,47.4964],[-2.156,47.522],[-2.0986,47.534],[-2.0965,47.5724],[-2.1037,47.5894],[-2.0869,47.6028],[-2.085,47.6212],[-2.097,47.6314],[-2.0747,47.6517],[-2.0506,47.6511],[-2.0357,47.6685],[-2.0094,47.6714],[-1.9691,47.6884],[-1.9546,47.6717],[-1.9363,47.6866],[-1.864,47.707],[-1.8225,47.7063],[-1.7724,47.6985],[-1.752,47.7074],[-1.7237,47.6987],[-1.6911,47.7128],[-1.6556,47.7105],[-1.6382,47.7223],[-1.6356,47.7427],[-1.6164,47.7642],[-1.5934,47.7761],[-1.5281,47.7858],[-1.5042,47.8009],[-1.4666,47.8075],[-1.4753,47.8254],[-1.4652,47.8346],[-1.4178,47.8275],[-1.3904,47.8283],[-1.3606,47.7984],[-1.3185,47.7923],[-1.2459,47.7767],[-1.2383,47.81],[-1.216,47.8312],[-1.214,47.8443],[-1.1892,47.8675],[-1.1966,47.8893],[-1.1762,47.8974],[-1.1595,47.9392],[-1.154,47.9658],[-1.1261,47.9733],[-1.1027,47.9891],[-1.071,47.9818],[-1.0213,47.9949],[-1.0182,48.0123],[-1.0347,48.0336],[-1.0233,48.0689],[-1.0496,48.0898],[-1.0603,48.1501],[-1.0796,48.1835],[-1.0737,48.2008],[-1.1015,48.2618],[-1.0821,48.2984],[-1.045,48.3277],[-1.0646,48.3683],[-1.0539,48.384],[-1.0771,48.4117],[-1.083,48.4336],[-1.0658,48.4512],[-1.0757,48.4994],[-1.0702,48.5085],[-1.0606,48.5153],[-1.004,48.4892],[-0.9723,48.4946],[-0.9564,48.5166],[-0.9224,48.5124],[-0.8958,48.4948],[-0.8604,48.5015],[-0.7976,48.4653],[-0.7779,48.4654],[-0.7796,48.446],[-0.7573,48.4366],[-0.7151,48.4489],[-0.7359,48.4611],[-0.7303,48.4727],[-0.7021,48.4672],[-0.6662,48.4859],[-0.6511,48.4439],[-0.5986,48.471],[-0.5503,48.4742],[-0.5304,48.4952],[-0.5051,48.5058],[-0.4782,48.5016],[-0.4438,48.5137],[-0.3676,48.4929],[-0.3382,48.5005],[-0.3202,48.5229],[-0.2715,48.5075],[-0.263,48.5236],[-0.2415,48.5371],[-0.2618,48.5479],[-0.2344,48.5623],[-0.2069,48.5629],[-0.1694,48.537],[-0.1446,48.5278],[-0.1663,48.5156],[-0.1436,48.4547],[-0.1064,48.4475],[-0.0519,48.4533],[-0.0574,48.4285],[-0.0545,48.382],[-0.0446,48.3798],[0.0034,48.396],[0.021,48.3802],[0.0625,48.383],[0.0687,48.4067],[0.0992,48.4104],[0.1162,48.4356],[0.1513,48.4372],[0.1722,48.4648],[0.1898,48.4619],[0.218,48.4738],[0.3002,48.4806],[0.3558,48.4582],[0.3816,48.4252],[0.3717,48.4105],[0.3831,48.3551],[0.3826,48.3338],[0.4062,48.3146],[0.4313,48.3066],[0.4876,48.3078],[0.4946,48.2868],[0.5303,48.2655],[0.536,48.2498],[0.5792,48.2444],[0.6236,48.2453],[0.6532,48.2637],[0.6755,48.2547],[0.6955,48.2363],[0.7236,48.1981],[0.7641,48.1816],[0.7977,48.1945],[0.8368,48.167],[0.862,48.1668],[0.9116,48.1489],[0.9138,48.1351],[0.8526,48.1336],[0.8412,48.1031],[0.843,48.0726],[0.8012,48.0715],[0.7976,48.0372],[0.8405,48.021],[0.8324,47.9966],[0.8187,47.9893],[0.8377,47.9687],[0.8455,47.9413],[0.8171,47.9345],[0.8091,47.9107],[0.7805,47.9104],[0.7573,47.8912],[0.7746,47.8397],[0.7452,47.8262],[0.7249,47.7989],[0.6513,47.7553],[0.6207,47.7475],[0.6116,47.7281],[0.5805,47.7123],[0.6144,47.6942],[0.6148,47.6827],[0.5848,47.6686],[0.5599,47.6708],[0.5446,47.6566],[0.5168,47.6549],[0.4984,47.6448],[0.4566,47.6388],[0.4499,47.6193],[0.4239,47.6178],[0.3963,47.6408],[0.3647,47.626],[0.397,47.594],[0.4026,47.5785],[0.3785,47.5685],[0.3396,47.5795],[0.3231,47.593],[0.278,47.5974],[0.2593,47.6123],[0.23,47.6084],[0.2345,47.578],[0.215,47.5706],[0.2015,47.5443],[0.2248,47.5273],[0.2201,47.502],[0.2092,47.4937],[0.1812,47.4526],[0.1853,47.4247],[0.1676,47.4054],[0.168,47.3869],[0.183,47.3803],[0.1494,47.3623],[0.1473,47.3454],[0.1175,47.3323],[0.0786,47.2839],[0.0679,47.2473],[0.0725,47.2205],[0.0533,47.1972],[0.0666,47.1898],[0.0538,47.1637],[0.0366,47.1604],[0.019,47.1758],[-0.0107,47.1575],[-0.036,47.1251],[-0.0442,47.0932],[-0.0859,47.101],[-0.0981,47.0914],[-0.1021,47.0648],[-0.1284,47.0544],[-0.1477,47.0699],[-0.1785,47.0698],[-0.1521,47.1009],[-0.1848,47.1083],[-0.2025,47.0958],[-0.2415,47.1057],[-0.2879,47.1014],[-0.3415,47.0873],[-0.3579,47.0937],[-0.3835,47.0877],[-0.4008,47.0708],[-0.4285,47.0727],[-0.4643,47.0676],[-0.4627,47.0819],[-0.4953,47.0824],[-0.5595,47.0619],[-0.5556,47.0435],[-0.5655,47.0194],[-0.6157,46.9929],[-0.6439,46.9935],[-0.6758,47.0017],[-0.7156,46.9855],[-0.7434,47.0007],[-0.762,46.9921],[-0.7876,47.0051],[-0.8559,46.9791],[-0.892,46.9758],[-0.873,46.9443],[-0.8519,46.9465],[-0.8291,46.9334],[-0.817,46.904],[-0.8322,46.8845],[-0.8153,46.8794],[-0.7816,46.8428],[-0.7329,46.8215],[-0.7088,46.8211],[-0.7273,46.7676],[-0.7001,46.7358],[-0.6689,46.7172],[-0.6562,46.7008],[-0.6807,46.6868],[-0.6375,46.6623],[-0.6342,46.6374],[-0.6141,46.6204],[-0.627,46.6057],[-0.6119,46.5883],[-0.6246,46.5774],[-0.6067,46.5623],[-0.6021,46.5333],[-0.6245,46.5297],[-0.6452,46.5086],[-0.625,46.4975],[-0.616,46.4616],[-0.6188,46.4389],[-0.6368,46.4323],[-0.6406,46.4162],[-0.6209,46.3905],[-0.6102,46.4137],[-0.5661,46.3931],[-0.5378,46.3865],[-0.5618,46.3597],[-0.6032,46.3615],[-0.6049,46.3472],[-0.6366,46.3376],[-0.6483,46.3171],[-0.6723,46.3162],[-0.6973,46.3251],[-0.7202,46.3149],[-0.7219,46.3024],[-0.7505,46.3043],[-0.8025,46.3252],[-0.8091,46.3384],[-0.8399,46.3404],[-0.8509,46.3172],[-0.8877,46.3263],[-0.9048,46.3138],[-0.9349,46.3129],[-0.9618,46.3231],[-0.9442,46.336],[-0.9318,46.3658],[-0.9645,46.3654],[-0.9774,46.3511],[-1.0138,46.3556],[-1.0525,46.3425],[-1.0807,46.3214],[-1.1294,46.3103],[-1.1672,46.3197],[-1.2022,46.316],[-1.1955,46.3005],[-1.2064,46.2888],[-1.2074,46.2666],[-1.2818,46.31],[-1.3444,46.342],[-1.3667,46.3486],[-1.401,46.3405],[-1.4284,46.3471],[-1.4659,46.3424],[-1.4878,46.3814],[-1.5021,46.3973],[-1.534,46.4089],[-1.5491,46.4055],[-1.6113,46.4134],[-1.7083,46.4509],[-1.7559,46.4749],[-1.7771,46.4928],[-1.8137,46.4953],[-1.8213,46.5237],[-1.856,46.6086],[-1.8907,46.6347],[-1.9408,46.6911],[-1.9654,46.692],[-1.9827,46.7203],[-2.0719,46.7828],[-2.141,46.8177],[-2.155,46.8897],[-2.1222,46.8913],[-2.1034,46.921],[-2.0582,46.9509],[-2.0293,47.0086],[-1.9804,47.0289],[-2.0047,47.0615],[-2.0326,47.0735],[-2.0535,47.0941],[-2.1141,47.1099],[-2.1556,47.1128],[-2.1777,47.1221],[-2.2145,47.1239],[-2.2268,47.1309],[-2.2261,47.1523],[-2.1671,47.1662],[-2.1584,47.2091],[-2.1806,47.233],[-2.1705,47.2398],[-2.17,47.2685],[-2.1874,47.2806],[-2.2454,47.256],[-2.2699,47.2396],[-2.3016,47.2364],[-2.3396,47.2552],[-2.3697,47.2774],[-2.3984,47.2814],[-2.442,47.2606],[-2.4555,47.2681],[-2.5139,47.2846],[-2.5029,47.3288],[-2.5212,47.3588],[-2.5589,47.3746],[-2.5341,47.383],[-2.4839,47.4124],[-2.4509,47.4253],[-2.4585,47.4481]]],[[[-2.3048,46.7094],[-2.3356,46.6881],[-2.3654,46.6951],[-2.3929,46.7115],[-2.399,46.7261],[-2.3715,46.7324],[-2.3184,46.719],[-2.3048,46.7094]]],[[[-2.1981,46.9512],[-2.2232,46.9653],[-2.2644,46.9609],[-2.3011,46.989],[-2.2925,47.0126],[-2.2765,47.0289],[-2.2507,47.0273],[-2.2188,47.0085],[-2.2263,46.9762],[-2.1572,46.95],[-2.1474,46.9342],[-2.1485,46.913],[-2.168,46.9085],[-2.1756,46.9293],[-2.1981,46.9512]]]]},"properties":{"code":"52","nom":"Pays de la Loire"}},{"type":"Feature","geometry":{"type":"MultiPolygon","coordinates":[[[[-3.6591,48.6592],[-3.6365,48.6707],[-3.5812,48.67],[-3.5848,48.7171],[-3.5554,48.7275],[-3.5503,48.7482],[-3.5839,48.771],[-3.5779,48.7883],[-3.535,48.8027],[-3.5409,48.8232],[-3.5231,48.8298],[-3.4678,48.8233],[-3.4302,48.7973],[-3.3975,48.8007],[-3.3824,48.8159],[-3.357,48.8197],[-3.3234,48.8373],[-3.2621,48.8354],[-3.2458,48.8571],[-3.2197,48.8665],[-3.2028,48.8345],[-3.1679,48.8531],[-3.1248,48.8647],[-3.0944,48.8676],[-3.0835,48.8273],[-3.0537,48.8152],[-3.0136,48.8221],[-3.0061,48.8003],[-3.0454,48.7878],[-3.0109,48.7666],[-2.9503,48.7636],[-2.929,48.7538],[-2.9451,48.7208],[-2.9253,48.7077],[-2.8903,48.6978],[-2.8808,48.6742],[-2.8565,48.674],[-2.8269,48.6506],[-2.8158,48.6097],[-2.8196,48.5935],[-2.7797,48.5851],[-2.7727,48.5705],[-2.7202,48.5555],[-2.721,48.5328],[-2.6984,48.5057],[-2.6757,48.5107],[-2.6816,48.5311],[-2.6303,48.5261],[-2.6313,48.5381],[-2.6056,48.5518],[-2.5597,48.5864],[-2.4952,48.6089],[-2.4729,48.6231],[-2.468,48.6496],[-2.4356,48.6522],[-2.4122,48.6415],[-2.3609,48.6556],[-2.3145,48.6741],[-2.2942,48.66],[-2.3134,48.6332],[-2.3375,48.6197],[-2.3119,48.6115],[-2.2999,48.6241],[-2.2635,48.6436],[-2.2054,48.5789],[-2.1756,48.5764],[-2.1572,48.5884],[-2.1658,48.6042],[-2.1237,48.6044],[-2.1414,48.6315],[-2.111,48.6394],[-2.0731,48.6398],[-2.0551,48.6273],[-2.0303,48.623],[-2.0336,48.6095],[-2.0135,48.5875],[-2.0069,48.5661],[-1.9723,48.5346],[-1.948,48.5388],[-1.9611,48.5503],[-1.992,48.5941],[-2.0087,48.6076],[-2.026,48.6344],[-2.026,48.6515],[-1.9952,48.6601],[-1.9698,48.6863],[-1.9381,48.6945],[-1.9058,48.6905],[-1.8905,48.6989],[-1.8486,48.6947],[-1.8364,48.6812],[-1.8627,48.6673],[-1.8717,48.6474],[-1.8451,48.6164],[-1.774,48.6035],[-1.6611,48.6107],[-1.5711,48.6264],[-1.5396,48.5999],[-1.543,48.5804],[-1.5189,48.5666],[-1.5333,48.548],[-1.5196,48.54],[-1.4956,48.5089],[-1.4899,48.4894],[-1.4493,48.4861],[-1.4291,48.4626],[-1.3826,48.4568],[-1.3447,48.4731],[-1.3287,48.4962],[-1.2792,48.5092],[-1.2722,48.5339],[-1.2066,48.5422],[-1.1884,48.5287],[-1.171,48.5311],[-1.1471,48.5175],[-1.1305,48.5217],[-1.0702,48.5085],[-1.0757,48.4994],[-1.0658,48.4512],[-1.083,48.4336],[-1.0771,48.4117],[-1.0539,48.384],[-1.0646,48.3683],[-1.045,48.3277],[-1.0821,48.2984],[-1.1015,48.2618],[-1.0737,48.2008],[-1.0796,48.1835],[-1.0603,48.1501],[-1.0496,48.0898],[-1.0233,48.0689],[-1.0347,48.0336],[-1.0182,48.0123],[-1.0213,47.9949],[-1.071,47.9818],[-1.1027,47.9891],[-1.1261,47.9733],[-1.154,47.9658],[-1.1595,47.9392],[-1.1762,47.8974],[-1.1966,47.8893],[-1.1892,47.8675],[-1.214,47.8443],[-1.216,47.8312],[-1.2383,47.81],[-1.2459,47.7767],[-1.3185,47.7923],[-1.3606,47.7984],[-1.3904,47.8283],[-1.4178,47.8275],[-1.4652,47.8346],[-1.4753,47.8254],[-1.4666,47.8075],[-1.5042,47.8009],[-1.5281,47.7858],[-1.5934,47.7761],[-1.6164,47.7642],[-1.6356,47.7427],[-1.6382,47.7223],[-1.6556,47.7105],[-1.6911,47.7128],[-1.7237,47.6987],[-1.752,47.7074],[-1.7724,47.6985],[-1.8225,47.7063],[-1.864,47.707],[-1.9363,47.6866],[-1.9546,47.6717],[-1.9691,47.6884],[-2.0094,47.6714],[-2.0357,47.6685],[-2.0506,47.6511],[-2.0747,47.6517],[-2.097,47.6314],[-2.085,47.6212],[-2.0869,47.6028],[-2.1037,47.5894],[-2.0965,47.5724],[-2.0986,47.534],[-2.156,47.522],[-2.1542,47.4964],[-2.1833,47.4917],[-2.1908,47.5121],[-2.2443,47.4936],[-2.2614,47.5136],[-2.2991,47.5005],[-2.3131,47.4859],[-2.3129,47.4645],[-2.3549,47.4549],[-2.371,47.4634],[-2.3999,47.456],[-2.423,47.4771],[-2.4534,47.4621],[-2.4585,47.4481],[-2.4795,47.4431],[-2.4987,47.4572],[-2.4896,47.4743],[-2.5015,47.4896],[-2.4412,47.4962],[-2.4661,47.5117],[-2.5177,47.5264],[-2.5439,47.523],[-2.5528,47.5126],[-2.6035,47.5163],[-2.6037,47.531],[-2.6523,47.5395],[-2.6519,47.5292],[-2.6813,47.4958],[-2.7155,47.5056],[-2.7839,47.4942],[-2.7954,47.4861],[-2.8495,47.4987],[-2.8476,47.5121],[-2.8752,47.5344],[-2.9132,47.543],[-2.9093,47.56],[-2.8827,47.5627],[-2.8621,47.5411],[-2.8189,47.5473],[-2.8053,47.5547],[-2.7624,47.5364],[-2.7342,47.5521],[-2.7154,47.5765],[-2.7144,47.593],[-2.7576,47.6129],[-2.7545,47.6359],[-2.7952,47.6195],[-2.8313,47.614],[-2.8512,47.619],[-2.8883,47.6037],[-2.8941,47.5819],[-2.937,47.5965],[-2.9507,47.5793],[-3.0047,47.5665],[-3.0265,47.5839],[-3.0949,47.5647],[-3.1233,47.5695],[-3.1332,47.5324],[-3.1169,47.4962],[-3.0945,47.4824],[-3.1294,47.4738],[-3.1518,47.5039],[-3.1521,47.5279],[-3.1346,47.5488],[-3.1397,47.5796],[-3.1584,47.607],[-3.1937,47.6219],[-3.2098,47.6407],[-3.2081,47.6634],[-3.1905,47.6825],[-3.1666,47.6804],[-3.1281,47.7056],[-3.126,47.7235],[-3.1594,47.7374],[-3.1763,47.7347],[-3.1737,47.702],[-3.2175,47.6673],[-3.215,47.6452],[-3.2709,47.6789],[-3.2879,47.701],[-3.3409,47.7087],[-3.3489,47.7286],[-3.3871,47.7019],[-3.4304,47.7032],[-3.4528,47.6953],[-3.4984,47.7294],[-3.521,47.7577],[-3.5299,47.7825],[-3.5174,47.805],[-3.5359,47.8164],[-3.5383,47.836],[-3.523,47.8491],[-3.5397,47.8362],[-3.5426,47.8215],[-3.5229,47.8022],[-3.5386,47.7626],[-3.5641,47.7686],[-3.6173,47.7695],[-3.6668,47.7807],[-3.6808,47.7768],[-3.736,47.8057],[-3.762,47.7906],[-3.8006,47.7876],[-3.8207,47.797],[-3.8511,47.796],[-3.9015,47.8381],[-3.9352,47.8827],[-3.9793,47.9051],[-3.9892,47.8812],[-3.9779,47.8537],[-4.0414,47.8456],[-4.0716,47.8639],[-4.1261,47.8642],[-4.1636,47.8492],[-4.1751,47.876],[-4.1971,47.861],[-4.1794,47.8393],[-4.1594,47.8318],[-4.183,47.8005],[-4.2166,47.7931],[-4.2692,47.791],[-4.2985,47.8005],[-4.3624,47.7957],[-4.3793,47.8221],[-4.3498,47.8308],[-4.3503,47.8572],[-4.3675,47.895],[-4.388,47.9267],[-4.4235,47.9629],[-4.4536,47.9818],[-4.5099,48.0051],[-4.5405,48.0128],[-4.5647,47.9998],[-4.6172,48.0167],[-4.633,48.0294],[-4.6524,48.022],[-4.6995,48.0276],[-4.7163,48.0625],[-4.6738,48.0608],[-4.6659,48.0702],[-4.6217,48.0685],[-4.5801,48.0819],[-4.5536,48.0771],[-4.5325,48.0883],[-4.4877,48.0865],[-4.4667,48.0991],[-4.4294,48.0992],[-4.3744,48.1102],[-4.307,48.0892],[-4.2856,48.1047],[-4.2837,48.1269],[-4.2717,48.1331],[-4.2731,48.1542],[-4.2958,48.1614],[-4.2921,48.1763],[-4.3031,48.1948],[-4.332,48.2063],[-4.3674,48.2052],[-4.3764,48.2171],[-4.4629,48.2382],[-4.5017,48.2304],[-4.5206,48.1915],[-4.5541,48.1678],[-4.5524,48.208],[-4.564,48.2322],[-4.5445,48.2412],[-4.5563,48.2584],[-4.5836,48.2519],[-4.6064,48.2608],[-4.5666,48.2863],[-4.5805,48.3195],[-4.5532,48.3388],[-4.5453,48.3245],[-4.5527,48.2943],[-4.535,48.2841],[-4.5179,48.2953],[-4.5026,48.2809],[-4.4551,48.2928],[-4.4238,48.2917],[-4.4121,48.2774],[-4.3845,48.2752],[-4.338,48.2856],[-4.308,48.2972],[-4.2717,48.2959],[-4.2619,48.2795],[-4.2231,48.2963],[-4.2812,48.3144],[-4.3286,48.3149],[-4.3161,48.3358],[-4.3672,48.3437],[-4.3753,48.3263],[-4.4423,48.3268],[-4.4439,48.3488],[-4.4029,48.39],[-4.4249,48.3976],[-4.4353,48.3834],[-4.4581,48.3859],[-4.507,48.3752],[-4.538,48.3571],[-4.5497,48.362],[-4.6087,48.3379],[-4.6281,48.3375],[-4.6784,48.3554],[-4.6948,48.3528],[-4.7076,48.3323],[-4.7723,48.3292],[-4.7699,48.3618],[-4.7609,48.3727],[-4.7744,48.3894],[-4.7737,48.4049],[-4.7949,48.4131],[-4.7783,48.4493],[-4.759,48.4704],[-4.777,48.5031],[-4.758,48.5209],[-4.7624,48.5309],[-4.7306,48.5563],[-4.7047,48.569],[-4.6811,48.5673],[-4.6278,48.5789],[-4.6099,48.5758],[-4.5908,48.594],[-4.5628,48.5982],[-4.5576,48.6235],[-4.5196,48.6346],[-4.5018,48.6212],[-4.4318,48.6352],[-4.4178,48.6547],[-4.398,48.6556],[-4.35,48.6765],[-4.3168,48.672],[-4.2717,48.6495],[-4.2238,48.6484],[-4.2096,48.6704],[-4.1869,48.6865],[-4.109,48.6944],[-4.0576,48.6893],[-4.0534,48.7033],[-4.033,48.7127],[-4.0005,48.7116],[-3.9834,48.7263],[-3.9668,48.7196],[-3.9736,48.7039],[-3.9695,48.6754],[-3.9495,48.6529],[-3.9035,48.6644],[-3.8896,48.6417],[-3.8455,48.627],[-3.8562,48.6491],[-3.8458,48.6616],[-3.8545,48.6864],[-3.8208,48.7014],[-3.7875,48.7018],[-3.7657,48.7089],[-3.7333,48.7074],[-3.7024,48.6904],[-3.6592,48.6949],[-3.6428,48.6721],[-3.6591,48.6592]]],[[[-5.1026,48.4361],[-5.1036,48.4723],[-5.0658,48.4814],[-5.0404,48.4651],[-5.0631,48.4491],[-5.1026,48.4361]]],[[[-3.4218,47.62],[-3.4407,47.6274],[-3.4619,47.6203],[-3.5076,47.6406],[-3.4969,47.6538],[-3.4295,47.6423],[-3.4218,47.62]]],[[[-3.1941,47.3659],[-3.1559,47.3611],[-3.1396,47.3298],[-3.0931,47.3151],[-3.0582,47.3117],[-3.0752,47.2877],[-3.0952,47.2832],[-3.1601,47.2923],[-3.1676,47.3016],[-3.1962,47.2937],[-3.221,47.2948],[-3.2491,47.3161],[-3.2397,47.3231],[-3.2605,47.3527],[-3.261,47.372],[-3.2196,47.3794],[-3.1941,47.3659]]]]},"properties":{"code":"53","nom":"Bretagne"}},{"type":"Feature","geometry":{"type":"MultiPolygon","coordinates":[[[[1.4152,46.3472],[1.4354,46.3638],[1.4629,46.3754],[1.5223,46.4265],[1.544,46.4169],[1.5462,46.3935],[1.5697,46.4055],[1.6143,46.4053],[1.6448,46.3868],[1.6836,46.4182],[1.7109,46.3921],[1.7277,46.3894],[1.7601,46.4276],[1.7476,46.45],[1.7984,46.4548],[1.8195,46.43],[1.8834,46.4326],[1.9092,46.4435],[1.9243,46.4319],[1.9781,46.4398],[1.9931,46.4309],[2.0444,46.4213],[2.0742,46.4198],[2.0889,46.4089],[2.1297,46.4199],[2.1678,46.4241],[2.1976,46.4283],[2.2138,46.4231],[2.2499,46.4264],[2.281,46.4204],[2.2848,46.3863],[2.3233,46.3665],[2.3027,46.3544],[2.323,46.3293],[2.3549,46.3257],[2.3705,46.3126],[2.3919,46.33],[2.4205,46.3101],[2.4213,46.2846],[2.443,46.295],[2.4808,46.281],[2.4771,46.2694],[2.4918,46.2479],[2.5159,46.237],[2.528,46.1863],[2.5598,46.1734],[2.5654,46.143],[2.5505,46.119],[2.5522,46.0825],[2.5717,46.0484],[2.6025,46.0335],[2.5944,45.9894],[2.6108,45.9712],[2.5696,45.9588],[2.5516,45.9413],[2.5279,45.8992],[2.4922,45.864],[2.4706,45.8723],[2.4265,45.8348],[2.4013,45.8376],[2.388,45.8274],[2.4274,45.7943],[2.4355,45.767],[2.4547,45.7609],[2.4921,45.7377],[2.521,45.7068],[2.5265,45.6854],[2.5126,45.6698],[2.5249,45.6572],[2.5175,45.6396],[2.4834,45.6393],[2.4784,45.6079],[2.4639,45.5947],[2.4909,45.5604],[2.5163,45.5534],[2.5168,45.5238],[2.5084,45.4785],[2.5068,45.4641],[2.4875,45.4182],[2.5257,45.3946],[2.5233,45.3844],[2.4858,45.3789],[2.4463,45.3833],[2.4227,45.3972],[2.3983,45.4002],[2.3782,45.4143],[2.3546,45.4014],[2.3694,45.3865],[2.3648,45.3579],[2.3513,45.3486],[2.3505,45.3276],[2.3177,45.323],[2.2874,45.2866],[2.269,45.2894],[2.2586,45.2702],[2.2388,45.2604],[2.2046,45.2282],[2.1901,45.2051],[2.208,45.1587],[2.2076,45.1435],[2.1817,45.1327],[2.1881,45.1179],[2.1718,45.0815],[2.1402,45.0865],[2.0952,45.056],[2.1168,45.0211],[2.1406,45.0059],[2.133,44.9855],[2.0938,44.9853],[2.0629,44.9765],[2.0454,44.9837],[1.9817,44.9729],[1.9407,44.9551],[1.9391,44.9732],[1.9082,44.9784],[1.8863,44.9561],[1.8312,44.9455],[1.8239,44.9277],[1.7871,44.9322],[1.7746,44.9235],[1.7539,44.9409],[1.7506,44.955],[1.711,44.9673],[1.7027,44.9878],[1.6714,45.0043],[1.651,45.025],[1.626,45.0339],[1.5763,45.0407],[1.552,45.0285],[1.5406,45.046],[1.4837,45.0309],[1.4763,45.0184],[1.4483,45.0193],[1.4093,45.006],[1.4336,44.9383],[1.4106,44.909],[1.4399,44.889],[1.4398,44.8749],[1.4048,44.8623],[1.4019,44.8494],[1.3614,44.8408],[1.3641,44.8116],[1.3281,44.8065],[1.2996,44.7969],[1.2962,44.7778],[1.3228,44.7651],[1.3161,44.7404],[1.2794,44.7158],[1.2483,44.7077],[1.2246,44.6843],[1.1688,44.68],[1.1467,44.6703],[1.1537,44.6388],[1.0957,44.5902],[1.0751,44.5773],[1.0717,44.5678],[1.0297,44.552],[0.9824,44.5455],[1.0162,44.5059],[1.009,44.48],[1.023,44.4754],[1.0214,44.4445],[1.03,44.4336],[1.0575,44.4277],[1.0607,44.4036],[1.0514,44.3921],[1.0641,44.3785],[1.0498,44.3626],[0.9961,44.3686],[0.9806,44.3584],[0.9501,44.3598],[0.9199,44.3841],[0.8982,44.3814],[0.8873,44.3664],[0.8961,44.3462],[0.8696,44.3094],[0.8951,44.2968],[0.9164,44.3022],[0.924,44.2887],[0.9505,44.275],[0.9191,44.2383],[0.9292,44.2303],[0.9052,44.1973],[0.8597,44.1927],[0.8536,44.175],[0.8722,44.1679],[0.8885,44.1488],[0.8688,44.1263],[0.8205,44.1432],[0.7951,44.1456],[0.7962,44.1151],[0.7541,44.1049],[0.7384,44.0752],[0.7419,44.0652],[0.7078,44.058],[0.6877,44.0459],[0.6771,44.027],[0.6316,44.0495],[0.6279,44.0606],[0.6022,44.0737],[0.5765,44.0752],[0.5651,44.0592],[0.5384,44.053],[0.4858,44.0586],[0.4595,44.0552],[0.4424,44.0288],[0.3945,44.02],[0.3815,44.0064],[0.3576,44.0164],[0.2996,43.9928],[0.2352,44.0085],[0.2247,44.0192],[0.1896,44.0146],[0.1668,43.9968],[0.1635,43.9759],[0.1379,43.9769],[0.141,43.9947],[0.076,43.9831],[0.0553,43.958],[0.071,43.9333],[0.0725,43.9138],[0.0557,43.8976],[0.0308,43.9006],[-0.0186,43.9314],[0.0042,43.9434],[0.0014,43.9599],[-0.0362,43.9837],[-0.0465,43.961],[-0.0724,43.9465],[-0.1247,43.9443],[-0.1663,43.9281],[-0.176,43.9363],[-0.2001,43.9148],[-0.2344,43.899],[-0.1946,43.8816],[-0.1986,43.8624],[-0.1925,43.8102],[-0.2271,43.8083],[-0.2061,43.7501],[-0.1941,43.737],[-0.2286,43.7154],[-0.2467,43.7107],[-0.2391,43.6939],[-0.2559,43.6798],[-0.2397,43.6712],[-0.2432,43.6545],[-0.2821,43.6431],[-0.2777,43.6162],[-0.2472,43.6159],[-0.2428,43.585],[-0.2106,43.5932],[-0.2047,43.5836],[-0.1729,43.5936],[-0.1604,43.5806],[-0.1216,43.5862],[-0.0968,43.5824],[-0.0889,43.5572],[-0.0644,43.5451],[-0.0401,43.5126],[-0.0493,43.4925],[-0.034,43.4749],[-0.0658,43.4635],[-0.0696,43.433],[-0.0427,43.4104],[-0.0337,43.4325],[-0.0165,43.4439],[0.0097,43.4222],[-0.0039,43.3935],[-0.0053,43.3738],[0.0295,43.3462],[0.0103,43.3253],[-0.0249,43.3295],[-0.0461,43.3009],[-0.0444,43.2853],[-0.017,43.2705],[-0.0459,43.2321],[-0.0725,43.2244],[-0.0679,43.1771],[-0.1177,43.1803],[-0.1263,43.1577],[-0.1461,43.1282],[-0.1709,43.1134],[-0.191,43.1112],[-0.1878,43.0833],[-0.1991,43.0644],[-0.2004,43.0427],[-0.2244,43.0338],[-0.2599,43.0383],[-0.2648,43.01],[-0.2872,43.0059],[-0.2923,42.9911],[-0.2816,42.9336],[-0.3272,42.9165],[-0.3071,42.87],[-0.3134,42.8494],[-0.3215,42.8372],[-0.3475,42.8359],[-0.368,42.8138],[-0.3926,42.7996],[-0.4092,42.8078],[-0.4443,42.7964],[-0.5096,42.8254],[-0.5248,42.8117],[-0.5229,42.7991],[-0.5438,42.7932],[-0.5512,42.7775],[-0.5706,42.7829],[-0.5689,42.8068],[-0.5927,42.8032],[-0.6036,42.8326],[-0.6489,42.8552],[-0.6787,42.8844],[-0.699,42.8797],[-0.7253,42.8913],[-0.735,42.9122],[-0.7251,42.923],[-0.7516,42.9669],[-0.7878,42.9642],[-0.81,42.9514],[-0.865,42.9508],[-0.8997,42.9619],[-0.9465,42.9541],[-1.0005,42.978],[-1.0064,42.989],[-1.0831,43.0017],[-1.113,43.0224],[-1.1334,43.0104],[-1.1669,43.0356],[-1.1807,43.0325],[-1.2287,43.0552],[-1.2472,43.0424],[-1.2643,43.0446],[-1.2835,43.0613],[-1.3085,43.0687],[-1.2987,43.0933],[-1.2802,43.1182],[-1.322,43.1123],[-1.3462,43.0911],[-1.3409,43.0802],[-1.3547,43.0285],[-1.4412,43.0463],[-1.4717,43.0811],[-1.4709,43.0917],[-1.4155,43.1275],[-1.416,43.1497],[-1.4034,43.1598],[-1.402,43.1779],[-1.3845,43.1913],[-1.3827,43.253],[-1.4132,43.2734],[-1.4389,43.2665],[-1.4954,43.2827],[-1.5053,43.2928],[-1.5647,43.2879],[-1.5581,43.2769],[-1.5777,43.2506],[-1.6087,43.2519],[-1.6304,43.2844],[-1.6226,43.3006],[-1.6671,43.3145],[-1.6941,43.3123],[-1.7297,43.2957],[-1.7577,43.344],[-1.7871,43.3514],[-1.789,43.3741],[-1.762,43.3759],[-1.6391,43.4084],[-1.6015,43.4333],[-1.563,43.4847],[-1.5481,43.496],[-1.5249,43.5297],[-1.4919,43.5723],[-1.46,43.6203],[-1.4424,43.6644],[-1.4365,43.7106],[-1.4102,43.8032],[-1.3753,43.9123],[-1.3377,44.0542],[-1.316,44.13],[-1.2775,44.3192],[-1.2539,44.4676],[-1.2517,44.5149],[-1.2586,44.5471],[-1.2274,44.5758],[-1.2035,44.6227],[-1.2042,44.64],[-1.1915,44.6607],[-1.1618,44.6634],[-1.1408,44.6472],[-1.0808,44.6406],[-1.066,44.6469],[-1.0168,44.6494],[-1.0248,44.6759],[-1.056,44.708],[-1.1067,44.7426],[-1.1172,44.744],[-1.1658,44.7753],[-1.18,44.7581],[-1.1738,44.7454],[-1.2206,44.7094],[-1.2378,44.6805],[-1.2462,44.6419],[-1.2621,44.6322],[-1.2517,44.712],[-1.2246,44.8538],[-1.2041,44.9898],[-1.1902,45.1076],[-1.1623,45.2979],[-1.1589,45.3576],[-1.1606,45.4107],[-1.1511,45.4416],[-1.157,45.4704],[-1.1364,45.511],[-1.1003,45.5416],[-1.0912,45.5624],[-1.0609,45.5597],[-1.04,45.5362],[-1.0394,45.5119],[-1.0053,45.4929],[-0.9741,45.4634],[-0.9339,45.4435],[-0.8975,45.4139],[-0.8381,45.378],[-0.8039,45.3484],[-0.7677,45.2897],[-0.7511,45.2481],[-0.7416,45.1895],[-0.6827,45.0787],[-0.6532,45.05],[-0.6085,45.0154],[-0.5907,45.0419],[-0.6359,45.0743],[-0.6522,45.1076],[-0.6678,45.1267],[-0.6699,45.1693],[-0.6882,45.2194],[-0.7037,45.2836],[-0.7188,45.3274],[-0.7343,45.3688],[-0.7562,45.406],[-0.8017,45.4595],[-0.8475,45.4988],[-0.9323,45.5479],[-0.9629,45.5568],[-0.993,45.5772],[-0.9937,45.5976],[-1.0096,45.6114],[-1.0489,45.6203],[-1.0794,45.6389],[-1.1158,45.647],[-1.1573,45.6718],[-1.2093,45.6967],[-1.2372,45.7059],[-1.2426,45.7816],[-1.209,45.7958],[-1.192,45.7894],[-1.1321,45.8049],[-1.1567,45.843],[-1.1532,45.8624],[-1.1251,45.8572],[-1.1009,45.8722],[-1.0738,45.9142],[-1.0769,45.9367],[-1.0643,45.9499],[-1.0989,45.9905],[-1.0631,45.9944],[-1.0527,46.0112],[-1.0659,46.0498],[-1.0888,46.0539],[-1.1007,46.0938],[-1.1151,46.1023],[-1.1291,46.127],[-1.1729,46.1393],[-1.1784,46.1532],[-1.2069,46.1458],[-1.2239,46.1659],[-1.1993,46.1943],[-1.199,46.2132],[-1.1713,46.2241],[-1.1428,46.244],[-1.1404,46.254],[-1.1112,46.2613],[-1.1294,46.3103],[-1.0807,46.3214],[-1.0525,46.3425],[-1.0138,46.3556],[-0.9774,46.3511],[-0.9645,46.3654],[-0.9318,46.3658],[-0.9442,46.336],[-0.9618,46.3231],[-0.9349,46.3129],[-0.9048,46.3138],[-0.8877,46.3263],[-0.8509,46.3172],[-0.8399,46.3404],[-0.8091,46.3384],[-0.8025,46.3252],[-0.7505,46.3043],[-0.7219,46.3024],[-0.7202,46.3149],[-0.6973,46.3251],[-0.6723,46.3162],[-0.6483,46.3171],[-0.6366,46.3376],[-0.6049,46.3472],[-0.6032,46.3615],[-0.5618,46.3597],[-0.5378,46.3865],[-0.5661,46.3931],[-0.6102,46.4137],[-0.6209,46.3905],[-0.6406,46.4162],[-0.6368,46.4323],[-0.6188,46.4389],[-0.616,46.4616],[-0.625,46.4975],[-0.6452,46.5086],[-0.6245,46.5297],[-0.6021,46.5333],[-0.6067,46.5623],[-0.6246,46.5774],[-0.6119,46.5883],[-0.627,46.6057],[-0.6141,46.6204],[-0.6342,46.6374],[-0.6375,46.6623],[-0.6807,46.6868],[-0.6562,46.7008],[-0.6689,46.7172],[-0.7001,46.7358],[-0.7273,46.7676],[-0.7088,46.8211],[-0.7329,46.8215],[-0.7816,46.8428],[-0.8153,46.8794],[-0.8322,46.8845],[-0.817,46.904],[-0.8291,46.9334],[-0.8519,46.9465],[-0.873,46.9443],[-0.892,46.9758],[-0.8559,46.9791],[-0.7876,47.0051],[-0.762,46.9921],[-0.7434,47.0007],[-0.7156,46.9855],[-0.6758,47.0017],[-0.6439,46.9935],[-0.6157,46.9929],[-0.5655,47.0194],[-0.5556,47.0435],[-0.5595,47.0619],[-0.4953,47.0824],[-0.4627,47.0819],[-0.4643,47.0676],[-0.4285,47.0727],[-0.4008,47.0708],[-0.3835,47.0877],[-0.3579,47.0937],[-0.3415,47.0873],[-0.2879,47.1014],[-0.2415,47.1057],[-0.2025,47.0958],[-0.1848,47.1083],[-0.1521,47.1009],[-0.1785,47.0698],[-0.1477,47.0699],[-0.1284,47.0544],[-0.1021,47.0648],[-0.0981,47.0914],[-0.0859,47.101],[-0.0442,47.0932],[-0.036,47.1251],[-0.0107,47.1575],[0.019,47.1758],[0.0366,47.1604],[0.0538,47.1637],[0.0764,47.1239],[0.1361,47.1216],[0.1347,47.1079],[0.1569,47.1033],[0.1815,47.1144],[0.201,47.0913],[0.1742,47.0713],[0.208,47.0532],[0.2455,47.0713],[0.2719,47.0464],[0.2982,47.0539],[0.3093,47.0441],[0.2987,47.0196],[0.3082,46.9999],[0.3007,46.9738],[0.3112,46.9378],[0.3248,46.9307],[0.3665,46.9496],[0.4387,46.9296],[0.4448,46.9411],[0.5027,46.9579],[0.5393,46.9602],[0.5644,46.9555],[0.6016,46.9591],[0.6012,46.9731],[0.5783,46.9798],[0.5669,47.0023],[0.6189,47.0075],[0.6362,46.9855],[0.6926,46.9743],[0.7063,46.9372],[0.7043,46.9033],[0.7521,46.8609],[0.8093,46.8279],[0.8119,46.7945],[0.828,46.7768],[0.8675,46.7482],[0.901,46.7361],[0.928,46.6954],[0.9084,46.6827],[0.9065,46.6477],[0.8943,46.6257],[0.9159,46.5966],[0.9408,46.5814],[0.9872,46.5656],[1.0148,46.5678],[1.0206,46.5371],[1.0876,46.5382],[1.1083,46.5315],[1.1491,46.5022],[1.135,46.4953],[1.153,46.473],[1.1516,46.4492],[1.211,46.4294],[1.1773,46.384],[1.2048,46.3877],[1.2192,46.3659],[1.2604,46.3788],[1.3031,46.371],[1.3223,46.3897],[1.356,46.4001],[1.3835,46.3748],[1.409,46.3613],[1.4152,46.3472]],[[-0.1033,43.3586],[-0.0901,43.3589],[-0.0873,43.3338],[-0.1155,43.3324],[-0.1103,43.313],[-0.075,43.3071],[-0.0625,43.3467],[-0.0832,43.3714],[-0.1033,43.3586]],[[-0.1031,43.2428],[-0.0798,43.2624],[-0.0962,43.2855],[-0.092,43.3005],[-0.1119,43.3104],[-0.1374,43.2857],[-0.1406,43.2719],[-0.1219,43.2434],[-0.1031,43.2428]]],[[[-1.4809,46.21],[-1.4528,46.2286],[-1.4248,46.2303],[-1.4292,46.2059],[-1.4042,46.2031],[-1.3639,46.2075],[-1.3213,46.1872],[-1.2911,46.1862],[-1.2742,46.1602],[-1.2762,46.1473],[-1.3048,46.1429],[-1.355,46.1559],[-1.3915,46.1772],[-1.4616,46.2021],[-1.5059,46.1941],[-1.5324,46.2023],[-1.5614,46.2372],[-1.5128,46.2581],[-1.4894,46.2533],[-1.4745,46.2333],[-1.5127,46.2223],[-1.4809,46.21]]],[[[-1.2503,45.846],[-1.2662,45.8782],[-1.2933,45.8999],[-1.351,45.925],[-1.3888,45.9573],[-1.3958,45.9768],[-1.3871,45.9972],[-1.4134,46.0469],[-1.3723,46.0395],[-1.3721,46.0322],[-1.3066,45.9911],[-1.2479,45.9904],[-1.236,45.9815],[-1.2421,45.9575],[-1.2298,45.9443],[-1.2338,45.9271],[-1.2236,45.9131],[-1.1884,45.8867],[-1.2077,45.8503],[-1.1956,45.8297],[-1.2319,45.8018],[-1.2457,45.8214],[-1.2503,45.846]]]]},"properties":{"code":"75","nom":"Nouvelle-Aquitaine"}},{"type":"Feature","geometry":{"type":"MultiPolygon","coordinates":[[[[1.7861,42.5736],[1.7732,42.5807],[1.7259,42.5904],[1.738,42.6113],[1.6836,42.6249],[1.662,42.6195],[1.6372,42.6303],[1.6064,42.6275],[1.5857,42.6336],[1.5624,42.6535],[1.5492,42.6558],[1.5014,42.6452],[1.4801,42.6514],[1.4695,42.6285],[1.4773,42.615],[1.4557,42.6021],[1.4402,42.6035],[1.4202,42.6261],[1.414,42.6548],[1.3877,42.671],[1.3896,42.6851],[1.3544,42.6995],[1.3579,42.7155],[1.325,42.7239],[1.2778,42.7139],[1.2525,42.7156],[1.2283,42.7274],[1.2172,42.7205],[1.1618,42.711],[1.1333,42.729],[1.1281,42.7554],[1.107,42.7723],[1.0706,42.7825],[0.9831,42.7871],[0.9599,42.8056],[0.9236,42.7904],[0.8583,42.8257],[0.8015,42.8405],[0.7865,42.836],[0.7377,42.8487],[0.7084,42.8614],[0.659,42.8385],[0.6699,42.8244],[0.6706,42.8048],[0.6445,42.7831],[0.6503,42.7642],[0.6823,42.709],[0.6706,42.6899],[0.6076,42.6991],[0.5868,42.695],[0.5296,42.7027],[0.5185,42.6919],[0.4777,42.7],[0.4356,42.6904],[0.4021,42.6965],[0.3926,42.7131],[0.3596,42.7234],[0.3262,42.7052],[0.3208,42.6831],[0.2928,42.6749],[0.2657,42.6959],[0.2601,42.7155],[0.2267,42.7174],[0.206,42.7293],[0.1757,42.7368],[0.1604,42.7244],[0.1366,42.7223],[0.1113,42.7102],[0.0904,42.7171],[0.046,42.6968],[0.0246,42.7025],[-0.0106,42.6844],[-0.0598,42.6934],[-0.0688,42.7179],[-0.1024,42.7216],[-0.1597,42.7974],[-0.1785,42.7854],[-0.2384,42.8082],[-0.2767,42.8355],[-0.3134,42.8494],[-0.3071,42.87],[-0.3272,42.9165],[-0.2816,42.9336],[-0.2923,42.9911],[-0.2872,43.0059],[-0.2648,43.01],[-0.2599,43.0383],[-0.2244,43.0338],[-0.2004,43.0427],[-0.1991,43.0644],[-0.1878,43.0833],[-0.191,43.1112],[-0.1709,43.1134],[-0.1461,43.1282],[-0.1263,43.1577],[-0.1177,43.1803],[-0.0679,43.1771],[-0.0725,43.2244],[-0.0459,43.2321],[-0.017,43.2705],[-0.0444,43.2853],[-0.0461,43.3009],[-0.0249,43.3295],[0.0103,43.3253],[0.0295,43.3462],[-0.0053,43.3738],[-0.0039,43.3935],[0.0097,43.4222],[-0.0165,43.4439],[-0.0337,43.4325],[-0.0427,43.4104],[-0.0696,43.433],[-0.0658,43.4635],[-0.034,43.4749],[-0.0493,43.4925],[-0.0401,43.5126],[-0.0644,43.5451],[-0.0889,43.5572],[-0.0968,43.5824],[-0.1216,43.5862],[-0.1604,43.5806],[-0.1729,43.5936],[-0.2047,43.5836],[-0.2106,43.5932],[-0.2428,43.585],[-0.2472,43.6159],[-0.2777,43.6162],[-0.2821,43.6431],[-0.2432,43.6545],[-0.2397,43.6712],[-0.2559,43.6798],[-0.2391,43.6939],[-0.2467,43.7107],[-0.2286,43.7154],[-0.1941,43.737],[-0.2061,43.7501],[-0.2271,43.8083],[-0.1925,43.8102],[-0.1986,43.8624],[-0.1946,43.8816],[-0.2344,43.899],[-0.2001,43.9148],[-0.176,43.9363],[-0.1663,43.9281],[-0.1247,43.9443],[-0.0724,43.9465],[-0.0465,43.961],[-0.0362,43.9837],[0.0014,43.9599],[0.0042,43.9434],[-0.0186,43.9314],[0.0308,43.9006],[0.0557,43.8976],[0.0725,43.9138],[0.071,43.9333],[0.0553,43.958],[0.076,43.9831],[0.141,43.9947],[0.1379,43.9769],[0.1635,43.9759],[0.1668,43.9968],[0.1896,44.0146],[0.2247,44.0192],[0.2352,44.0085],[0.2996,43.9928],[0.3576,44.0164],[0.3815,44.0064],[0.3945,44.02],[0.4424,44.0288],[0.4595,44.0552],[0.4858,44.0586],[0.5384,44.053],[0.5651,44.0592],[0.5765,44.0752],[0.6022,44.0737],[0.6279,44.0606],[0.6316,44.0495],[0.6771,44.027],[0.6877,44.0459],[0.7078,44.058],[0.7419,44.0652],[0.7384,44.0752],[0.7541,44.1049],[0.7962,44.1151],[0.7951,44.1456],[0.8205,44.1432],[0.8688,44.1263],[0.8885,44.1488],[0.8722,44.1679],[0.8536,44.175],[0.8597,44.1927],[0.9052,44.1973],[0.9292,44.2303],[0.9191,44.2383],[0.9505,44.275],[0.924,44.2887],[0.9164,44.3022],[0.8951,44.2968],[0.8696,44.3094],[0.8961,44.3462],[0.8873,44.3664],[0.8982,44.3814],[0.9199,44.3841],[0.9501,44.3598],[0.9806,44.3584],[0.9961,44.3686],[1.0498,44.3626],[1.0641,44.3785],[1.0514,44.3921],[1.0607,44.4036],[1.0575,44.4277],[1.03,44.4336],[1.0214,44.4445],[1.023,44.4754],[1.009,44.48],[1.0162,44.5059],[0.9824,44.5455],[1.0297,44.552],[1.0717,44.5678],[1.0751,44.5773],[1.0957,44.5902],[1.1537,44.6388],[1.1467,44.6703],[1.1688,44.68],[1.2246,44.6843],[1.2483,44.7077],[1.2794,44.7158],[1.3161,44.7404],[1.3228,44.7651],[1.2962,44.7778],[1.2996,44.7969],[1.3281,44.8065],[1.3641,44.8116],[1.3614,44.8408],[1.4019,44.8494],[1.4048,44.8623],[1.4398,44.8749],[1.4399,44.889],[1.4106,44.909],[1.4336,44.9383],[1.4093,45.006],[1.4483,45.0193],[1.4763,45.0184],[1.4837,45.0309],[1.5406,45.046],[1.552,45.0285],[1.5763,45.0407],[1.626,45.0339],[1.651,45.025],[1.6714,45.0043],[1.7027,44.9878],[1.711,44.9673],[1.7506,44.955],[1.7539,44.9409],[1.7746,44.9235],[1.7871,44.9322],[1.8239,44.9277],[1.8312,44.9455],[1.8863,44.9561],[1.9082,44.9784],[1.9391,44.9732],[1.9407,44.9551],[1.9817,44.9729],[2.0454,44.9837],[2.0629,44.9765],[2.0802,44.954],[2.0786,44.9325],[2.1081,44.9106],[2.0865,44.9011],[2.0934,44.8729],[2.1398,44.8238],[2.1668,44.8117],[2.167,44.7731],[2.1535,44.7531],[2.1473,44.7209],[2.1527,44.6998],[2.1792,44.6744],[2.165,44.6632],[2.1694,44.6381],[2.2075,44.6155],[2.2084,44.6438],[2.2286,44.6551],[2.2509,44.6519],[2.291,44.6666],[2.3268,44.6697],[2.3328,44.6506],[2.366,44.6413],[2.382,44.6509],[2.435,44.6389],[2.4522,44.6482],[2.4832,44.6503],[2.5009,44.6904],[2.5582,44.7235],[2.5545,44.7396],[2.5652,44.7782],[2.5994,44.7928],[2.5968,44.8198],[2.6116,44.8307],[2.6027,44.8432],[2.6239,44.8669],[2.6491,44.8697],[2.6578,44.8864],[2.6813,44.9074],[2.7064,44.9072],[2.7165,44.9291],[2.731,44.9367],[2.7564,44.9324],[2.7735,44.9151],[2.7783,44.8877],[2.7727,44.8555],[2.802,44.8736],[2.8135,44.8694],[2.8597,44.8745],[2.8553,44.8512],[2.8704,44.8294],[2.8796,44.803],[2.8935,44.7863],[2.9202,44.7943],[2.9345,44.7792],[2.9208,44.7657],[2.9348,44.744],[2.9251,44.7271],[2.943,44.677],[2.973,44.6457],[2.9817,44.6447],[3.016,44.7137],[3.0286,44.73],[3.0311,44.7494],[3.048,44.7655],[3.0481,44.8043],[3.0715,44.8341],[3.0995,44.8336],[3.0936,44.8537],[3.1055,44.8868],[3.1411,44.9033],[3.166,44.8743],[3.1823,44.8637],[3.216,44.875],[3.2366,44.888],[3.2291,44.9093],[3.2497,44.9162],[3.2438,44.9335],[3.286,44.9264],[3.2989,44.9386],[3.3379,44.9559],[3.3613,44.9714],[3.3864,44.9527],[3.4046,44.9564],[3.4158,44.9285],[3.4104,44.9178],[3.4357,44.8802],[3.4418,44.8542],[3.4588,44.8399],[3.4782,44.8097],[3.5057,44.8238],[3.5397,44.8282],[3.5889,44.8264],[3.598,44.8595],[3.5943,44.8754],[3.6265,44.8803],[3.6549,44.8742],[3.6718,44.8434],[3.669,44.8289],[3.7229,44.831],[3.7444,44.8378],[3.7527,44.821],[3.8025,44.7822],[3.8429,44.7677],[3.8366,44.7478],[3.8625,44.7439],[3.8699,44.6789],[3.8947,44.6511],[3.8937,44.6178],[3.9083,44.6066],[3.9236,44.5719],[3.9488,44.5729],[3.9817,44.5151],[3.9877,44.4728],[3.9982,44.4598],[4.0376,44.4457],[4.0478,44.4181],[4.0684,44.4051],[4.053,44.3787],[4.0534,44.3393],[4.0369,44.3308],[4.0515,44.3173],[4.0716,44.3273],[4.1268,44.3377],[4.1429,44.3134],[4.1777,44.3179],[4.1867,44.2997],[4.2153,44.2907],[4.2413,44.2701],[4.2588,44.2648],[4.2775,44.2747],[4.2894,44.2932],[4.2884,44.3147],[4.3217,44.324],[4.3361,44.3395],[4.3668,44.3395],[4.3865,44.3466],[4.4032,44.3339],[4.3908,44.303],[4.399,44.2889],[4.4328,44.287],[4.4484,44.2966],[4.4511,44.3346],[4.4576,44.3416],[4.5033,44.3392],[4.5445,44.3208],[4.5569,44.3041],[4.6068,44.2905],[4.6181,44.2785],[4.6381,44.283],[4.6492,44.2704],[4.6541,44.2543],[4.6748,44.2386],[4.6766,44.2126],[4.7065,44.2144],[4.7058,44.1928],[4.7221,44.1874],[4.7075,44.1037],[4.7301,44.079],[4.7579,44.0772],[4.788,44.0651],[4.7891,44.0522],[4.8377,44.0149],[4.8421,43.9865],[4.816,43.9888],[4.8151,43.9676],[4.779,43.9379],[4.7391,43.9241],[4.7234,43.906],[4.6933,43.885],[4.6419,43.8675],[4.6663,43.8448],[4.6424,43.8314],[4.6548,43.8023],[4.6512,43.7823],[4.63,43.7627],[4.6136,43.7298],[4.613,43.7143],[4.6277,43.6905],[4.593,43.6875],[4.5819,43.6964],[4.5369,43.7075],[4.4872,43.6992],[4.4755,43.6711],[4.4542,43.6666],[4.427,43.6207],[4.4397,43.6107],[4.4752,43.6083],[4.4503,43.5836],[4.4255,43.5852],[4.4093,43.5611],[4.3537,43.5474],[4.2959,43.5145],[4.2397,43.4992],[4.2303,43.4602],[4.1656,43.4719],[4.1272,43.4895],[4.1169,43.509],[4.1389,43.5321],[4.101,43.5544],[4.0561,43.5575],[4.0112,43.5524],[3.9686,43.54],[3.9071,43.5168],[3.8512,43.4865],[3.7967,43.441],[3.7249,43.4158],[3.7256,43.4012],[3.6928,43.3929],[3.6622,43.3923],[3.6026,43.3554],[3.5582,43.3189],[3.5098,43.2719],[3.4672,43.2768],[3.4303,43.2902],[3.3869,43.2841],[3.3439,43.2704],[3.2634,43.2289],[3.2406,43.2128],[3.1773,43.1654],[3.1408,43.1288],[3.0929,43.0691],[3.074,43.0381],[3.0428,42.9602],[3.0405,42.9297],[3.0606,42.9171],[3.0435,42.8382],[3.0393,42.7998],[3.0387,42.7312],[3.0354,42.6782],[3.0371,42.6261],[3.0452,42.5946],[3.0496,42.5501],[3.0571,42.5372],[3.0869,42.5241],[3.1056,42.5256],[3.1381,42.5149],[3.123,42.505],[3.1331,42.4813],[3.153,42.4778],[3.1573,42.4594],[3.1742,42.4356],[3.1208,42.438],[3.0854,42.4255],[3.049,42.4555],[3.0408,42.4731],[3.0126,42.4665],[2.9889,42.4738],[2.969,42.4658],[2.947,42.4818],[2.9245,42.4584],[2.8635,42.4637],[2.8414,42.4585],[2.8148,42.4388],[2.7992,42.4186],[2.772,42.4124],[2.7532,42.4254],[2.7163,42.4209],[2.6738,42.4045],[2.6556,42.3884],[2.6718,42.3412],[2.6113,42.3468],[2.5778,42.3579],[2.5546,42.3539],[2.54,42.3338],[2.5003,42.3429],[2.483,42.3396],[2.4675,42.3589],[2.4335,42.3771],[2.4355,42.3889],[2.3492,42.4067],[2.307,42.4288],[2.2924,42.423],[2.2567,42.4384],[2.2467,42.4295],[2.2011,42.4163],[2.1563,42.4234],[2.1289,42.4125],[2.1151,42.382],[2.0895,42.3737],[2.0836,42.3627],[2.0235,42.3552],[1.9859,42.362],[1.9605,42.3919],[1.9583,42.424],[1.9417,42.4297],[1.9353,42.4536],[1.9166,42.4463],[1.8855,42.4493],[1.8814,42.4597],[1.8498,42.4673],[1.8434,42.4771],[1.8031,42.4896],[1.7633,42.4868],[1.7312,42.4927],[1.7263,42.5174],[1.7359,42.5505],[1.7548,42.5649],[1.7861,42.5736]],[[1.9601,42.4705],[1.9598,42.4533],[1.9813,42.4475],[2.0127,42.4483],[1.9865,42.4758],[1.9601,42.4705]]],[[[-0.1031,43.2428],[-0.1219,43.2434],[-0.1406,43.2719],[-0.1374,43.2857],[-0.1119,43.3104],[-0.092,43.3005],[-0.0962,43.2855],[-0.0798,43.2624],[-0.1031,43.2428]]],[[[-0.1033,43.3586],[-0.0832,43.3714],[-0.0625,43.3467],[-0.075,43.3071],[-0.1103,43.313],[-0.1155,43.3324],[-0.0873,43.3338],[-0.0901,43.3589],[-0.1033,43.3586]]]]},"properties":{"code":"76","nom":"Occitanie"}},{"type":"Feature","geometry":{"type":"Polygon","coordinates":[[[4.7802,46.1767],[4.7946,46.2183],[4.8078,46.237],[4.811,46.2599],[4.826,46.2748],[4.8318,46.2969],[4.8528,46.3282],[4.8515,46.3563],[4.8882,46.403],[4.8918,46.4399],[4.9158,46.4654],[4.9156,46.4889],[4.9356,46.5142],[5.0043,46.5104],[5.0278,46.4936],[5.0564,46.4839],[5.1074,46.4919],[5.1372,46.5093],[5.1727,46.5134],[5.2011,46.5082],[5.2151,46.4684],[5.2558,46.4519],[5.3106,46.4468],[5.3195,46.4308],[5.2988,46.4127],[5.3414,46.4018],[5.3756,46.3802],[5.3735,46.3522],[5.402,46.339],[5.4258,46.3389],[5.4378,46.3151],[5.4669,46.3233],[5.4751,46.315],[5.4568,46.2745],[5.4731,46.2651],[5.5203,46.2642],[5.542,46.2702],[5.5664,46.2941],[5.5974,46.2972],[5.6176,46.3291],[5.6494,46.3395],[5.6846,46.3109],[5.7147,46.3088],[5.715,46.2818],[5.7252,46.2607],[5.7657,46.2683],[5.8498,46.2621],[5.8784,46.2692],[5.8946,46.2866],[5.9089,46.284],[5.918,46.3092],[5.9414,46.3094],[5.9836,46.3624],[6.0295,46.3868],[6.064,46.4162],[6.0982,46.4088],[6.1697,46.3679],[6.1213,46.3137],[6.1194,46.2949],[6.1026,46.2851],[6.1242,46.251],[6.1018,46.2375],[6.0882,46.2468],[6.0331,46.238],[6.0026,46.2209],[5.9784,46.217],[5.9637,46.197],[5.9922,46.1866],[5.9561,46.1321],[5.9853,46.1433],[6.0455,46.1399],[6.052,46.1514],[6.0925,46.1518],[6.1266,46.1405],[6.1751,46.1581],[6.186,46.1782],[6.236,46.2065],[6.2774,46.2156],[6.3101,46.2437],[6.3073,46.2554],[6.2676,46.2478],[6.2378,46.2773],[6.2468,46.3021],[6.277,46.3489],[6.3037,46.3663],[6.3447,46.37],[6.357,46.3527],[6.39,46.3402],[6.4116,46.3584],[6.4685,46.3724],[6.4829,46.3919],[6.5131,46.4048],[6.5452,46.3947],[6.5881,46.4023],[6.6351,46.4058],[6.7229,46.4076],[6.7898,46.3929],[6.8062,46.3804],[6.7706,46.3549],[6.7845,46.3327],[6.8203,46.3144],[6.83,46.3],[6.8645,46.283],[6.8539,46.2538],[6.8399,46.2482],[6.8037,46.2043],[6.8119,46.1834],[6.792,46.1629],[6.7965,46.1386],[6.8147,46.1297],[6.8984,46.1226],[6.8838,46.0958],[6.8915,46.0845],[6.8726,46.052],[6.8883,46.0431],[6.9245,46.0652],[6.9515,46.05],[6.9847,46.0065],[7.0058,46.0005],[7.0227,45.9803],[7.018,45.9603],[7.0372,45.9547],[7.0439,45.9236],[7.021,45.9162],[7.0032,45.8978],[7.0054,45.8844],[6.9917,45.8682],[6.951,45.8595],[6.9396,45.8467],[6.8951,45.8426],[6.8736,45.8455],[6.8189,45.8362],[6.804,45.8159],[6.8127,45.808],[6.8025,45.7784],[6.8084,45.7252],[6.8477,45.6894],[6.9065,45.6746],[6.9021,45.6637],[6.9346,45.6471],[6.9667,45.6541],[7.0007,45.6399],[6.9879,45.6248],[6.9779,45.5899],[6.9954,45.5756],[6.9915,45.5313],[7.0053,45.5171],[7.0003,45.5044],[7.0445,45.4972],[7.0458,45.4784],[7.0998,45.4694],[7.1135,45.4342],[7.1522,45.4232],[7.1843,45.4075],[7.1651,45.3834],[7.1617,45.3625],[7.1377,45.3508],[7.1347,45.3312],[7.1136,45.3287],[7.1218,45.2962],[7.1364,45.2808],[7.1378,45.2569],[7.1065,45.2393],[7.0673,45.2101],[7.0512,45.2253],[7.02,45.2159],[6.9658,45.208],[6.9542,45.1796],[6.9303,45.171],[6.8953,45.1685],[6.8841,45.1567],[6.8944,45.1374],[6.8479,45.1272],[6.8123,45.1484],[6.7679,45.1597],[6.739,45.1368],[6.7113,45.1448],[6.6801,45.1401],[6.6725,45.1244],[6.63,45.1093],[6.6156,45.1215],[6.5765,45.1231],[6.556,45.1042],[6.5297,45.0986],[6.511,45.1088],[6.4804,45.0908],[6.4862,45.0561],[6.4518,45.0517],[6.4386,45.0626],[6.3939,45.0618],[6.3649,45.0702],[6.3735,45.0841],[6.3629,45.1045],[6.3313,45.1181],[6.2992,45.1086],[6.2606,45.1268],[6.2294,45.1088],[6.243,45.0691],[6.2201,45.0654],[6.2039,45.0125],[6.2518,44.9967],[6.3002,45.004],[6.3218,45.0001],[6.3148,44.9802],[6.3285,44.9697],[6.329,44.9473],[6.3588,44.9413],[6.3546,44.9236],[6.3584,44.8921],[6.3508,44.8812],[6.3547,44.856],[6.3363,44.8484],[6.3007,44.8735],[6.2694,44.8705],[6.2505,44.8527],[6.1964,44.859],[6.1708,44.8542],[6.1284,44.8619],[6.1119,44.8441],[6.0569,44.8165],[6.0302,44.8381],[6.0049,44.8204],[5.9792,44.8186],[5.9495,44.8045],[5.9778,44.791],[5.9801,44.7812],[5.9222,44.7541],[5.9001,44.7583],[5.8888,44.7488],[5.8468,44.7516],[5.8278,44.7401],[5.8015,44.7068],[5.8271,44.7003],[5.8258,44.6857],[5.7994,44.6739],[5.7906,44.6533],[5.7539,44.6627],[5.726,44.6394],[5.6417,44.6511],[5.6439,44.6097],[5.6177,44.5831],[5.5972,44.5433],[5.6274,44.5346],[5.6645,44.5019],[5.6298,44.5012],[5.6163,44.4727],[5.6037,44.4655],[5.5624,44.4749],[5.5165,44.4914],[5.4799,44.4912],[5.4587,44.4661],[5.4644,44.4479],[5.4983,44.4373],[5.4765,44.4197],[5.4472,44.4319],[5.4185,44.4249],[5.443,44.3912],[5.435,44.3691],[5.4607,44.3683],[5.4694,44.3515],[5.4931,44.3372],[5.5218,44.3493],[5.5374,44.3335],[5.6171,44.3325],[5.6081,44.3085],[5.6378,44.2997],[5.632,44.2847],[5.6475,44.2725],[5.6762,44.2755],[5.673,44.2398],[5.6813,44.2329],[5.676,44.1914],[5.6516,44.1896],[5.647,44.1663],[5.6827,44.1632],[5.6786,44.1461],[5.6317,44.1514],[5.6396,44.1676],[5.6096,44.1882],[5.5762,44.188],[5.5644,44.1709],[5.583,44.1576],[5.5513,44.1498],[5.5404,44.1322],[5.4988,44.1157],[5.4547,44.1192],[5.4357,44.1517],[5.3832,44.1553],[5.3845,44.201],[5.354,44.2134],[5.3368,44.2035],[5.2922,44.2145],[5.2565,44.2301],[5.2381,44.2132],[5.175,44.2208],[5.1549,44.2309],[5.1615,44.2456],[5.1497,44.2821],[5.1672,44.2921],[5.1727,44.3094],[5.1045,44.2795],[5.0765,44.2841],[5.0606,44.3081],[5.0055,44.2868],[4.9815,44.2848],[4.9329,44.2622],[4.8791,44.2615],[4.8267,44.2283],[4.8141,44.2323],[4.8127,44.2577],[4.8031,44.28],[4.8046,44.3039],[4.7623,44.3254],[4.7201,44.3267],[4.679,44.3205],[4.6506,44.3298],[4.6535,44.3021],[4.6492,44.2704],[4.6381,44.283],[4.6181,44.2785],[4.6068,44.2905],[4.5569,44.3041],[4.5445,44.3208],[4.5033,44.3392],[4.4576,44.3416],[4.4511,44.3346],[4.4484,44.2966],[4.4328,44.287],[4.399,44.2889],[4.3908,44.303],[4.4032,44.3339],[4.3865,44.3466],[4.3668,44.3395],[4.3361,44.3395],[4.3217,44.324],[4.2884,44.3147],[4.2894,44.2932],[4.2775,44.2747],[4.2588,44.2648],[4.2413,44.2701],[4.2153,44.2907],[4.1867,44.2997],[4.1777,44.3179],[4.1429,44.3134],[4.1268,44.3377],[4.0716,44.3273],[4.0515,44.3173],[4.0369,44.3308],[4.0534,44.3393],[4.053,44.3787],[4.0684,44.4051],[4.0478,44.4181],[4.0376,44.4457],[3.9982,44.4598],[3.9877,44.4728],[3.9817,44.5151],[3.9488,44.5729],[3.9236,44.5719],[3.9083,44.6066],[3.8937,44.6178],[3.8947,44.6511],[3.8699,44.6789],[3.8625,44.7439],[3.8366,44.7478],[3.8429,44.7677],[3.8025,44.7822],[3.7527,44.821],[3.7444,44.8378],[3.7229,44.831],[3.669,44.8289],[3.6718,44.8434],[3.6549,44.8742],[3.6265,44.8803],[3.5943,44.8754],[3.598,44.8595],[3.5889,44.8264],[3.5397,44.8282],[3.5057,44.8238],[3.4782,44.8097],[3.4588,44.8399],[3.4418,44.8542],[3.4357,44.8802],[3.4104,44.9178],[3.4158,44.9285],[3.4046,44.9564],[3.3864,44.9527],[3.3613,44.9714],[3.3379,44.9559],[3.2989,44.9386],[3.286,44.9264],[3.2438,44.9335],[3.2497,44.9162],[3.2291,44.9093],[3.2366,44.888],[3.216,44.875],[3.1823,44.8637],[3.166,44.8743],[3.1411,44.9033],[3.1055,44.8868],[3.0936,44.8537],[3.0995,44.8336],[3.0715,44.8341],[3.0481,44.8043],[3.048,44.7655],[3.0311,44.7494],[3.0286,44.73],[3.016,44.7137],[2.9817,44.6447],[2.973,44.6457],[2.943,44.677],[2.9251,44.7271],[2.9348,44.744],[2.9208,44.7657],[2.9345,44.7792],[2.9202,44.7943],[2.8935,44.7863],[2.8796,44.803],[2.8704,44.8294],[2.8553,44.8512],[2.8597,44.8745],[2.8135,44.8694],[2.802,44.8736],[2.7727,44.8555],[2.7783,44.8877],[2.7735,44.9151],[2.7564,44.9324],[2.731,44.9367],[2.7165,44.9291],[2.7064,44.9072],[2.6813,44.9074],[2.6578,44.8864],[2.6491,44.8697],[2.6239,44.8669],[2.6027,44.8432],[2.6116,44.8307],[2.5968,44.8198],[2.5994,44.7928],[2.5652,44.7782],[2.5545,44.7396],[2.5582,44.7235],[2.5009,44.6904],[2.4832,44.6503],[2.4522,44.6482],[2.435,44.6389],[2.382,44.6509],[2.366,44.6413],[2.3328,44.6506],[2.3268,44.6697],[2.291,44.6666],[2.2509,44.6519],[2.2286,44.6551],[2.2084,44.6438],[2.2075,44.6155],[2.1694,44.6381],[2.165,44.6632],[2.1792,44.6744],[2.1527,44.6998],[2.1473,44.7209],[2.1535,44.7531],[2.167,44.7731],[2.1668,44.8117],[2.1398,44.8238],[2.0934,44.8729],[2.0865,44.9011],[2.1081,44.9106],[2.0786,44.9325],[2.0802,44.954],[2.0629,44.9765],[2.0938,44.9853],[2.133,44.9855],[2.1406,45.0059],[2.1168,45.0211],[2.0952,45.056],[2.1402,45.0865],[2.1718,45.0815],[2.1881,45.1179],[2.1817,45.1327],[2.2076,45.1435],[2.208,45.1587],[2.1901,45.2051],[2.2046,45.2282],[2.2388,45.2604],[2.2586,45.2702],[2.269,45.2894],[2.2874,45.2866],[2.3177,45.323],[2.3505,45.3276],[2.3513,45.3486],[2.3648,45.3579],[2.3694,45.3865],[2.3546,45.4014],[2.3782,45.4143],[2.3983,45.4002],[2.4227,45.3972],[2.4463,45.3833],[2.4858,45.3789],[2.5233,45.3844],[2.5257,45.3946],[2.4875,45.4182],[2.5068,45.4641],[2.5084,45.4785],[2.5168,45.5238],[2.5163,45.5534],[2.4909,45.5604],[2.4639,45.5947],[2.4784,45.6079],[2.4834,45.6393],[2.5175,45.6396],[2.5249,45.6572],[2.5126,45.6698],[2.5265,45.6854],[2.521,45.7068],[2.4921,45.7377],[2.4547,45.7609],[2.4355,45.767],[2.4274,45.7943],[2.388,45.8274],[2.4013,45.8376],[2.4265,45.8348],[2.4706,45.8723],[2.4922,45.864],[2.5279,45.8992],[2.5516,45.9413],[2.5696,45.9588],[2.6108,45.9712],[2.5944,45.9894],[2.6025,46.0335],[2.5717,46.0484],[2.5522,46.0825],[2.5505,46.119],[2.5654,46.143],[2.5598,46.1734],[2.528,46.1863],[2.5159,46.237],[2.4918,46.2479],[2.4771,46.2694],[2.4808,46.281],[2.443,46.295],[2.4213,46.2846],[2.4205,46.3101],[2.3919,46.33],[2.3705,46.3126],[2.3549,46.3257],[2.323,46.3293],[2.3027,46.3544],[2.3233,46.3665],[2.2848,46.3863],[2.281,46.4204],[2.2858,46.4535],[2.3055,46.4754],[2.352,46.5122],[2.3683,46.5184],[2.4455,46.5201],[2.4829,46.5327],[2.4991,46.5213],[2.5286,46.5295],[2.5367,46.5197],[2.6099,46.5501],[2.6011,46.5902],[2.578,46.6038],[2.5966,46.6372],[2.5722,46.6594],[2.5978,46.6647],[2.6239,46.6566],[2.6479,46.6889],[2.7017,46.7278],[2.7145,46.7445],[2.7373,46.7432],[2.7587,46.7177],[2.7912,46.7335],[2.8276,46.7353],[2.9098,46.7793],[2.9081,46.7879],[2.9599,46.8039],[3.0321,46.7949],[3.0491,46.7581],[3.0839,46.7376],[3.1298,46.7272],[3.1632,46.6935],[3.1973,46.6799],[3.2155,46.6829],[3.2698,46.7167],[3.3009,46.7163],[3.314,46.6888],[3.3467,46.6844],[3.3664,46.6913],[3.3878,46.7148],[3.4341,46.7119],[3.433,46.6933],[3.4538,46.6841],[3.4473,46.6636],[3.4553,46.6524],[3.4886,46.6602],[3.524,46.686],[3.5465,46.6783],[3.5601,46.6894],[3.5504,46.7159],[3.5773,46.7149],[3.598,46.724],[3.5757,46.7495],[3.6294,46.7495],[3.6379,46.7072],[3.6514,46.7028],[3.669,46.6735],[3.697,46.6606],[3.7121,46.6336],[3.7139,46.614],[3.7324,46.6049],[3.7431,46.5655],[3.7315,46.5496],[3.7418,46.5395],[3.7675,46.539],[3.8018,46.5199],[3.834,46.5311],[3.8398,46.5176],[3.8646,46.5097],[3.8618,46.4921],[3.8905,46.4813],[3.919,46.4961],[3.9579,46.4898],[3.998,46.4655],[3.9881,46.4355],[3.9961,46.4274],[3.9772,46.3992],[3.9916,46.3696],[3.9866,46.3192],[3.9502,46.3206],[3.9477,46.3034],[3.9136,46.2967],[3.8995,46.2759],[3.9094,46.2577],[3.8901,46.2145],[3.9136,46.2069],[3.9725,46.2027],[3.9818,46.1763],[4.0305,46.1698],[4.052,46.1817],[4.1041,46.1984],[4.1334,46.1773],[4.1884,46.1751],[4.1845,46.188],[4.2079,46.1948],[4.2247,46.178],[4.2574,46.1847],[4.2571,46.1573],[4.2818,46.1566],[4.2923,46.1725],[4.3157,46.172],[4.3622,46.1956],[4.3881,46.2198],[4.392,46.263],[4.4058,46.2961],[4.4584,46.297],[4.4885,46.288],[4.504,46.2671],[4.5373,46.2699],[4.5578,46.2946],[4.5865,46.2687],[4.6186,46.2648],[4.617,46.2806],[4.6547,46.3035],[4.6888,46.3013],[4.7075,46.2847],[4.6796,46.2587],[4.7358,46.2342],[4.7206,46.2224],[4.7353,46.2109],[4.7209,46.1939],[4.7305,46.1784],[4.7575,46.1723],[4.7802,46.1767]],[[4.8929,44.3648],[4.8715,44.3496],[4.8953,44.3381],[4.8816,44.3249],[4.8895,44.304],[4.9221,44.3088],[4.9786,44.2975],[5.0233,44.3459],[5.027,44.3628],[5.052,44.3647],[5.0488,44.3812],[5.0158,44.3928],[5.0133,44.4053],[4.9886,44.4232],[4.9633,44.4219],[4.9185,44.4078],[4.9066,44.3741],[4.8929,44.3648]]]},"properties":{"code":"84","nom":"Auvergne-Rhône-Alpes"}},{"type":"Feature","geometry":{"type":"MultiPolygon","coordinates":[[[[6.9483,44.6548],[6.9623,44.6266],[6.9484,44.6175],[6.9327,44.5927],[6.932,44.5727],[6.9132,44.5588],[6.876,44.5502],[6.854,44.5291],[6.8657,44.495],[6.882,44.4773],[6.9063,44.4668],[6.9111,44.4524],[6.9371,44.4389],[6.9371,44.4297],[6.8929,44.4208],[6.8965,44.3743],[6.8874,44.361],[6.9226,44.3507],[6.9265,44.3347],[6.9605,44.3109],[6.9559,44.2971],[6.9934,44.2809],[6.9971,44.252],[7.0081,44.2364],[7.0388,44.2237],[7.0702,44.233],[7.1122,44.2173],[7.1411,44.201],[7.1597,44.2062],[7.2034,44.1848],[7.2189,44.1689],[7.237,44.1743],[7.2486,44.1585],[7.2803,44.1412],[7.3404,44.1456],[7.3585,44.1182],[7.3889,44.1248],[7.4268,44.1176],[7.4299,44.1278],[7.46,44.1257],[7.5057,44.1437],[7.5568,44.1469],[7.5771,44.1529],[7.6146,44.1497],[7.6451,44.1779],[7.6846,44.174],[7.6709,44.1537],[7.6672,44.1334],[7.6745,44.118],[7.7157,44.0828],[7.7141,44.0654],[7.7,44.0408],[7.665,44.0307],[7.6702,43.9985],[7.6527,43.9748],[7.6102,43.9551],[7.5969,43.9565],[7.5729,43.9378],[7.5599,43.9144],[7.5592,43.8973],[7.5113,43.8823],[7.4952,43.8623],[7.5183,43.8033],[7.5302,43.788],[7.4902,43.7672],[7.4759,43.7508],[7.4597,43.76],[7.4123,43.7344],[7.4132,43.7248],[7.3751,43.7175],[7.3607,43.7223],[7.3376,43.7117],[7.3265,43.6962],[7.2972,43.6861],[7.2852,43.6943],[7.2438,43.6894],[7.2259,43.6623],[7.2065,43.6456],[7.1945,43.6579],[7.1579,43.6539],[7.1393,43.6361],[7.123,43.5883],[7.1218,43.5595],[7.1013,43.5707],[7.0676,43.5616],[7.0559,43.548],[7.0148,43.5509],[6.9743,43.5461],[6.9522,43.5347],[6.9384,43.5164],[6.9547,43.5047],[6.9471,43.4844],[6.9337,43.4801],[6.9229,43.4517],[6.9051,43.4454],[6.8918,43.4286],[6.857,43.4305],[6.8588,43.4148],[6.8268,43.4174],[6.7828,43.4094],[6.7663,43.4238],[6.7337,43.4056],[6.732,43.3895],[6.7143,43.3679],[6.71,43.3446],[6.68,43.3403],[6.666,43.3182],[6.5839,43.2773],[6.586,43.2645],[6.6207,43.2642],[6.6399,43.2742],[6.6621,43.2649],[6.6773,43.2788],[6.6971,43.2664],[6.6903,43.2544],[6.6636,43.238],[6.6698,43.2059],[6.6425,43.185],[6.6202,43.1607],[6.5919,43.1855],[6.5564,43.1881],[6.4956,43.1511],[6.4594,43.1559],[6.4052,43.149],[6.3687,43.137],[6.3598,43.1199],[6.3658,43.0889],[6.3325,43.0911],[6.3167,43.1062],[6.2749,43.1207],[6.2413,43.1139],[6.2081,43.1164],[6.1803,43.107],[6.1604,43.0893],[6.15,43.0613],[6.1571,43.0284],[6.1167,43.0392],[6.1316,43.048],[6.1259,43.0775],[6.0765,43.0869],[6.0314,43.0775],[6.0235,43.0948],[6.0063,43.104],[5.9409,43.1078],[5.9206,43.1239],[5.8999,43.1132],[5.9165,43.0857],[5.872,43.0681],[5.8575,43.0466],[5.8288,43.0494],[5.8046,43.0783],[5.8139,43.1071],[5.7732,43.1176],[5.781,43.1309],[5.7259,43.1365],[5.719,43.1473],[5.6949,43.1436],[5.6719,43.1793],[5.6526,43.1873],[5.6242,43.187],[5.6009,43.1625],[5.5691,43.1753],[5.5313,43.212],[5.5101,43.1977],[5.4544,43.2106],[5.3911,43.2121],[5.3636,43.2071],[5.3409,43.2146],[5.3484,43.2298],[5.3725,43.2451],[5.3662,43.2693],[5.3457,43.2824],[5.3644,43.3121],[5.3239,43.3569],[5.2965,43.3596],[5.2563,43.3373],[5.2213,43.3284],[5.1775,43.3336],[5.1683,43.3279],[5.0379,43.329],[5.019,43.3429],[5.0243,43.3556],[4.9759,43.4023],[4.9677,43.4261],[4.9314,43.4332],[4.9064,43.4197],[4.8643,43.4062],[4.849,43.3744],[4.8748,43.3605],[4.855,43.3326],[4.833,43.3299],[4.7834,43.3472],[4.7177,43.3503],[4.6618,43.3464],[4.5858,43.3601],[4.5628,43.3721],[4.5574,43.3883],[4.5877,43.4007],[4.582,43.4306],[4.5621,43.4433],[4.5164,43.4547],[4.4653,43.4572],[4.4022,43.4473],[4.382,43.4523],[4.2303,43.4602],[4.2397,43.4992],[4.2959,43.5145],[4.3537,43.5474],[4.4093,43.5611],[4.4255,43.5852],[4.4503,43.5836],[4.4752,43.6083],[4.4397,43.6107],[4.427,43.6207],[4.4542,43.6666],[4.4755,43.6711],[4.4872,43.6992],[4.5369,43.7075],[4.5819,43.6964],[4.593,43.6875],[4.6277,43.6905],[4.613,43.7143],[4.6136,43.7298],[4.63,43.7627],[4.6512,43.7823],[4.6548,43.8023],[4.6424,43.8314],[4.6663,43.8448],[4.6419,43.8675],[4.6933,43.885],[4.7234,43.906],[4.7391,43.9241],[4.779,43.9379],[4.8151,43.9676],[4.816,43.9888],[4.8421,43.9865],[4.8377,44.0149],[4.7891,44.0522],[4.788,44.0651],[4.7579,44.0772],[4.7301,44.079],[4.7075,44.1037],[4.7221,44.1874],[4.7058,44.1928],[4.7065,44.2144],[4.6766,44.2126],[4.6748,44.2386],[4.6541,44.2543],[4.6492,44.2704],[4.6535,44.3021],[4.6506,44.3298],[4.679,44.3205],[4.7201,44.3267],[4.7623,44.3254],[4.8046,44.3039],[4.8031,44.28],[4.8127,44.2577],[4.8141,44.2323],[4.8267,44.2283],[4.8791,44.2615],[4.9329,44.2622],[4.9815,44.2848],[5.0055,44.2868],[5.0606,44.3081],[5.0765,44.2841],[5.1045,44.2795],[5.1727,44.3094],[5.1672,44.2921],[5.1497,44.2821],[5.1615,44.2456],[5.1549,44.2309],[5.175,44.2208],[5.2381,44.2132],[5.2565,44.2301],[5.2922,44.2145],[5.3368,44.2035],[5.354,44.2134],[5.3845,44.201],[5.3832,44.1553],[5.4357,44.1517],[5.4547,44.1192],[5.4988,44.1157],[5.5404,44.1322],[5.5513,44.1498],[5.583,44.1576],[5.5644,44.1709],[5.5762,44.188],[5.6096,44.1882],[5.6396,44.1676],[5.6317,44.1514],[5.6786,44.1461],[5.6827,44.1632],[5.647,44.1663],[5.6516,44.1896],[5.676,44.1914],[5.6813,44.2329],[5.673,44.2398],[5.6762,44.2755],[5.6475,44.2725],[5.632,44.2847],[5.6378,44.2997],[5.6081,44.3085],[5.6171,44.3325],[5.5374,44.3335],[5.5218,44.3493],[5.4931,44.3372],[5.4694,44.3515],[5.4607,44.3683],[5.435,44.3691],[5.443,44.3912],[5.4185,44.4249],[5.4472,44.4319],[5.4765,44.4197],[5.4983,44.4373],[5.4644,44.4479],[5.4587,44.4661],[5.4799,44.4912],[5.5165,44.4914],[5.5624,44.4749],[5.6037,44.4655],[5.6163,44.4727],[5.6298,44.5012],[5.6645,44.5019],[5.6274,44.5346],[5.5972,44.5433],[5.6177,44.5831],[5.6439,44.6097],[5.6417,44.6511],[5.726,44.6394],[5.7539,44.6627],[5.7906,44.6533],[5.7994,44.6739],[5.8258,44.6857],[5.8271,44.7003],[5.8015,44.7068],[5.8278,44.7401],[5.8468,44.7516],[5.8888,44.7488],[5.9001,44.7583],[5.9222,44.7541],[5.9801,44.7812],[5.9778,44.791],[5.9495,44.8045],[5.9792,44.8186],[6.0049,44.8204],[6.0302,44.8381],[6.0569,44.8165],[6.1119,44.8441],[6.1284,44.8619],[6.1708,44.8542],[6.1964,44.859],[6.2505,44.8527],[6.2694,44.8705],[6.3007,44.8735],[6.3363,44.8484],[6.3547,44.856],[6.3508,44.8812],[6.3584,44.8921],[6.3546,44.9236],[6.3588,44.9413],[6.329,44.9473],[6.3285,44.9697],[6.3148,44.9802],[6.3218,45.0001],[6.3002,45.004],[6.2518,44.9967],[6.2039,45.0125],[6.2201,45.0654],[6.243,45.0691],[6.2294,45.1088],[6.2606,45.1268],[6.2992,45.1086],[6.3313,45.1181],[6.3629,45.1045],[6.3735,45.0841],[6.3649,45.0702],[6.3939,45.0618],[6.4386,45.0626],[6.4518,45.0517],[6.4862,45.0561],[6.4804,45.0908],[6.511,45.1088],[6.5297,45.0986],[6.556,45.1042],[6.5765,45.1231],[6.6156,45.1215],[6.63,45.1093],[6.6275,45.1012],[6.6621,45.0716],[6.6588,45.0522],[6.6724,45.0214],[6.7257,45.0215],[6.7434,45.0159],[6.7512,44.9976],[6.7376,44.9915],[6.7635,44.9712],[6.7531,44.943],[6.7507,44.9057],[6.7712,44.9034],[6.8059,44.8766],[6.8632,44.8506],[6.9138,44.8454],[6.9337,44.862],[6.9726,44.8462],[7.0068,44.8393],[7.0183,44.8123],[6.9996,44.7894],[7.0247,44.7624],[7.0242,44.7413],[7.0437,44.7181],[7.0658,44.7136],[7.0771,44.6809],[7.0597,44.68],[7.0237,44.6913],[6.9862,44.6881],[6.9575,44.6698],[6.9483,44.6548]],[[5.0145,43.5555],[5.0155,43.5297],[4.9986,43.4981],[5.0046,43.4701],[5.038,43.4706],[5.0519,43.4636],[5.0704,43.4002],[5.1107,43.4041],[5.1373,43.4002],[5.1602,43.411],[5.1913,43.4349],[5.2261,43.4526],[5.2226,43.4835],[5.2028,43.4912],[5.1453,43.4586],[5.1027,43.526],[5.0643,43.5278],[5.0464,43.5221],[5.033,43.5451],[5.0145,43.5555]]],[[[6.4348,43.0155],[6.4552,43.0268],[6.4702,43.0452],[6.4896,43.0426],[6.4698,43.0164],[6.4348,43.0155]]],[[[6.3971,42.9928],[6.3827,43.0123],[6.4207,43.0137],[6.3971,42.9928]]],[[[6.2441,43.02],[6.2505,42.9994],[6.2087,42.9834],[6.1641,43.0015],[6.1782,43.0084],[6.2017,43.0008],[6.2441,43.02]]],[[[4.8929,44.3648],[4.9066,44.3741],[4.9185,44.4078],[4.9633,44.4219],[4.9886,44.4232],[5.0133,44.4053],[5.0158,44.3928],[5.0488,44.3812],[5.052,44.3647],[5.027,44.3628],[5.0233,44.3459],[4.9786,44.2975],[4.9221,44.3088],[4.8895,44.304],[4.8816,44.3249],[4.8953,44.3381],[4.8715,44.3496],[4.8929,44.3648]]]]},"properties":{"code":"93","nom":"Provence-Alpes-Côte d'Azur"}},{"type":"Feature","geometry":{"type":"Polygon","coordinates":[[[9.4023,41.8587],[9.4063,41.8224],[9.3941,41.7989],[9.408,41.766],[9.3998,41.6928],[9.3723,41.6788],[9.3868,41.6601],[9.3701,41.6365],[9.3547,41.6407],[9.3367,41.6215],[9.2878,41.6091],[9.2957,41.5833],[9.3184,41.6047],[9.3425,41.5942],[9.365,41.5964],[9.3409,41.5592],[9.3026,41.5456],[9.2839,41.5205],[9.2759,41.4964],[9.2856,41.4815],[9.2561,41.4554],[9.224,41.4425],[9.2264,41.417],[9.2502,41.4085],[9.218,41.3682],[9.1798,41.3671],[9.1672,41.3856],[9.149,41.3852],[9.1233,41.3975],[9.0923,41.3987],[9.1044,41.4255],[9.0973,41.4438],[9.0743,41.4429],[9.0397,41.4686],[9.0227,41.4638],[8.9928,41.4854],[8.9595,41.4921],[8.922,41.4933],[8.9147,41.5072],[8.8846,41.5051],[8.8778,41.5238],[8.8526,41.5334],[8.8397,41.546],[8.8207,41.5457],[8.8005,41.5719],[8.7759,41.5917],[8.7897,41.6057],[8.7936,41.6296],[8.8218,41.6301],[8.8507,41.6464],[8.8695,41.6461],[8.8809,41.6681],[8.9158,41.6816],[8.9145,41.6897],[8.8413,41.6975],[8.8127,41.7141],[8.7735,41.712],[8.784,41.7352],[8.7724,41.7415],[8.7215,41.7242],[8.686,41.748],[8.7131,41.7608],[8.7303,41.7768],[8.7092,41.7994],[8.7405,41.8006],[8.771,41.8111],[8.7844,41.8304],[8.7903,41.8664],[8.7793,41.8836],[8.8025,41.8904],[8.7803,41.9245],[8.7401,41.9208],[8.7175,41.9077],[8.6712,41.9048],[8.6415,41.9099],[8.6134,41.9013],[8.6205,41.9264],[8.5977,41.9532],[8.6148,41.9713],[8.6461,41.9681],[8.6658,41.9786],[8.6564,42.0093],[8.6903,42.0276],[8.7021,42.0267],[8.7413,42.0409],[8.7392,42.0627],[8.7199,42.0635],[8.7103,42.0958],[8.6833,42.1077],[8.6583,42.1063],[8.647,42.1211],[8.6238,42.1231],[8.5775,42.1566],[8.5902,42.1639],[8.5782,42.1886],[8.5814,42.2059],[8.561,42.2369],[8.6157,42.2539],[8.6891,42.2635],[8.6901,42.2782],[8.66,42.3024],[8.6376,42.3018],[8.6249,42.3122],[8.6281,42.3387],[8.6149,42.3496],[8.5904,42.3524],[8.5621,42.3328],[8.5518,42.3474],[8.5734,42.3814],[8.6088,42.3864],[8.6084,42.4168],[8.6234,42.421],[8.6552,42.4157],[8.6748,42.4762],[8.6646,42.493],[8.6655,42.5136],[8.6968,42.5256],[8.7105,42.5237],[8.7205,42.5556],[8.7564,42.5707],[8.7604,42.5586],[8.7871,42.558],[8.8041,42.5699],[8.8089,42.5991],[8.875,42.6132],[8.8815,42.6293],[8.9024,42.6271],[8.9181,42.6369],[8.9418,42.6341],[9.0104,42.6404],[9.0618,42.6651],[9.0538,42.68],[9.0858,42.7146],[9.1246,42.7316],[9.1681,42.7364],[9.1981,42.725],[9.2207,42.7356],[9.2933,42.6743],[9.3226,42.6981],[9.3225,42.7168],[9.3451,42.7367],[9.3375,42.765],[9.3402,42.8006],[9.3116,42.8297],[9.332,42.8703],[9.3222,42.8996],[9.3477,42.9131],[9.3589,42.9449],[9.3409,42.9945],[9.359,43.0067],[9.4137,43.0065],[9.4636,42.9864],[9.4519,42.9644],[9.4661,42.941],[9.469,42.9051],[9.4822,42.8645],[9.4911,42.795],[9.4721,42.7705],[9.4462,42.6736],[9.4749,42.6248],[9.5148,42.5847],[9.5273,42.5661],[9.5347,42.523],[9.5296,42.4894],[9.5413,42.4559],[9.5434,42.4285],[9.5324,42.3838],[9.5377,42.3436],[9.5597,42.2814],[9.5526,42.2352],[9.559,42.1964],[9.5566,42.1421],[9.55,42.1042],[9.5302,42.0862],[9.467,42.0127],[9.4415,41.9898],[9.4138,41.9557],[9.4159,41.928],[9.397,41.8746],[9.4023,41.8587]]]},"properties":{"code":"94","nom":"Corse"}}]}